X,Y,amenity,name,brand,addr:housenumber,addr:street,addr:postcode,addr:city,phone,opening_hours,website,operator,fuel:diesel,addr:state,name:en,brand:wikidata,brand:wikipedia,addr:country,building,shop,fuel:octane_87,fuel:biodiesel,access,fuel:e10,fuel:gasoline,fuel:octane_92,is_in,atm,car_wash,fuel:octane_91,membership,fuel:lpg,fuel:octane_89,fuel:octane_95,wheelchair
-122.3298055,48.3937602975452,fuel,24 Hour Express Fuel,,,,,,,,,,,,24 Hour Express Fuel,,,,,,,,,,,,,,,,,,,,
-120.916225,47.1917122975452,fuel,76,76,1001,East 1st Street,98922,,,,,,,,,,,,,,,,,,,,,,,,,,,,
-122.3575768,47.2387038975452,fuel,76,76,2002,54th Avenue E,98424-1904,Fife,,,,,,WA,,,,,roof,,,,,,,,"Fife; Washington; USA",,,,,,,,
-122.2913239,48.4352268975452,fuel,76,76,,,,,,,,,,,,,,,,,,,,,,yes,,,,,,,,,
-120.014523,47.8396080975452,fuel,76,76,,,,,,,,,,,,,,,,,,,,,,,,,,,,,,,
-122.0973429,47.1395415975452,fuel,76,76,,,,,,,,,,,,,,,,,,,,,,,,,,,,,,,
-122.5046745,47.2347702975452,fuel,76,76,,,,,,,,,,,,,,,,,,,,,,,,,,,,,,,
-122.0365967,47.5442952975452,fuel,76,76,,,,,,,,,,,,,,,,,,,,,,,,,,,,,,,
-122.3241049,47.6060395975452,fuel,76,76,,,,,,,,,,,,,,,,,,,,,,,,,,,,,,,
-122.1148925,47.6716835975452,fuel,76,76,,,,,,,,,,,,,,,,,,,,,,,,,,,,,,,
-122.2998584,47.9224274975452,fuel,76,76,,,,,,,,,,,,,,,,,,,,,,,,,,,,,,,
-122.3739625,48.2412269975452,fuel,76,76,,,,,,,,,,,,,,,,,,,,,,,,,,,,,,,
-122.3318182,48.3405951975452,fuel,76,76,,,,,,,,,,,,,,,,,,,,,,,,,,,,,,,
-122.3410856,48.3408742975452,fuel,76,76,,,,,,,,,,,,,,,,,,,,,,,,,,,,,,,
-119.3490955,46.2875508975452,fuel,76,Union 76,,,,,,,,,,,,,,,,,,,,,,,,,,,,,,,
-119.8600033,47.0829085975452,fuel,76,Union 76,,,,,,,,,,,,,,,,,,,,,,,,,,,,,,,
-122.957653,46.7012351975452,fuel,76,Union 76,,,,,,,,,,,,,,,,,,,,,,,,,,,,,,,
-123.0998193,47.2130806975452,fuel,76,Union 76,,,,,,,,,,,,,,,,,,,,,,,,,,,,,,,
-122.3223483,48.9203725975452,fuel,76,,102,W Columbia St,98276-8201,Nooksack,+1-360-966-4994,,,,,,,,,,,,,,,,,,,,,,,,,,
-122.4602115,48.7567705975452,fuel,76,,1101,Iowa St,98229,Bellingham,,"Sa,Su 05:00-23:00,06:00-23:00",,,,,,,,,,,,,,,,,,,,,,,,,
-122.4570005,48.7732270975452,fuel,76,,1300,E Sunset Dr,98226-5637,Bellingham,+1-360-738-7240,,,,,,,,,,,,,,,,,,,,,,,,,,
-122.502472,48.7173990975452,fuel,76,,1602,12th St,98225,Bellingham,,,,,,,,,,,,,,,,,,,,,,,,,,,
-122.4858024,48.7646144975452,fuel,76,,2604,Meridian St,98225-2409,Bellingham,+1-360-647-1079,,,,,,,,,,,,,,,,,,,,,,,,,,
-122.3203029,47.6251788975452,fuel,76,,915,East Roy Street,98102,Seattle,,,,,,,,,,,,,,,,,,,,,,,,,,,
-122.2142107,47.3155676975452,fuel,76,,,,,,,24/7,,,,,76,,,,,,,,,,,,,,,,,,,,
-122.2286604,47.2938204975452,fuel,76,,,,,,,24/7,,,,,,,,,,,,,,,,,,,,,,,,,
-122.1077834,48.0029776975452,fuel,76,,,,,,,,,76,,,,,,,,,,,,,,,,,,,,,,,
-122.3041808,47.6436760975452,fuel,76,,,,,,,,,,,,76,,,,,,,,,,,,,,,,,,,,
-122.1256246,47.8341683975452,fuel,76,,,,,,,,,,,,76,,,,,,,,,,,,,,,,,,,,
-122.3629663,47.7910271975452,fuel,76,,,,,,,,,,,,,,,,yes,,,,,,,,,,,,,,,,
-120.303316,47.4111952975452,fuel,76,,,,,,,,,,,,,,,,,convenience,,,,,,,,,,,,,,,
-120.8052204,45.8260948975452,fuel,76,,,,,,,,,,,,,,,,,,,,,,,,,,,,,,,,
-122.8791994,46.5475775975452,fuel,76,,,,,,,,,,,,,,,,,,,,,,,,,,,,,,,,
-122.8853267,46.5844371975452,fuel,76,,,,,,,,,,,,,,,,,,,,,,,,,,,,,,,,
-122.3009198,46.8879567975452,fuel,76,,,,,,,,,,,,,,,,,,,,,,,,,,,,,,,,
-120.2888516,47.4055262975452,fuel,76,,,,,,,,,,,,,,,,,,,,,,,,,,,,,,,,
-120.2276378,47.6255786975452,fuel,76,,,,,,,,,,,,,,,,,,,,,,,,,,,,,,,,
-121.9776053,47.8615956975452,fuel,76,,,,,,,,,,,,,,,,,,,,,,,,,,,,,,,,
-122.2938197,47.1180105975452,fuel,76,,,,,,,,,,,,,,,,,,,,,,,,,,,,,,,,
-122.039416,47.1585153975452,fuel,76,,,,,,,,,,,,,,,,,,,,,,,,,,,,,,,,
-122.1848508,47.1774151975452,fuel,76,,,,,,,,,,,,,,,,,,,,,,,,,,,,,,,,
-122.258855,47.1453002975452,fuel,76,,,,,,,,,,,,,,,,,,,,,,,,,,,,,,,,
-122.4841219,47.1638282975452,fuel,76,,,,,,,,,,,,,,,,,,,,,,,,,,,,,,,,
-122.3565415,47.2433837975452,fuel,76,,,,,,,,,,,,,,,,,,,,,,,,,,,,,,,,
-122.4153676,47.2419124975452,fuel,76,,,,,,,,,,,,,,,,,,,,,,,,,,,,,,,,
-122.6257477,47.0938385975452,fuel,76,,,,,,,,,,,,,,,,,,,,,,,,,,,,,,,,
-122.5255984,47.1385048975452,fuel,76,,,,,,,,,,,,,,,,,,,,,,,,,,,,,,,,
-122.1555212,47.2752862975452,fuel,76,,,,,,,,,,,,,,,,,,,,,,,,,,,,,,,,
-122.1658606,47.3872546975452,fuel,76,,,,,,,,,,,,,,,,,,,,,,,,,,,,,,,,
-122.1017014,47.4624242975452,fuel,76,,,,,,,,,,,,,,,,,,,,,,,,,,,,,,,,
-122.2043609,47.4624782975452,fuel,76,,,,,,,,,,,,,,,,,,,,,,,,,,,,,,,,
-122.2535219,47.4693727975452,fuel,76,,,,,,,,,,,,,,,,,,,,,,,,,,,,,,,,
-122.5164306,47.2714384975452,fuel,76,,,,,,,,,,,,,,,,,,,,,,,,,,,,,,,,
-122.5780979,47.3087103975452,fuel,76,,,,,,,,,,,,,,,,,,,,,,,,,,,,,,,,
-122.5880995,47.3227836975452,fuel,76,,,,,,,,,,,,,,,,,,,,,,,,,,,,,,,,
-123.0207959,47.0794798975452,fuel,76,,,,,,,,,,,,,,,,,,,,,,,,,,,,,,,,
-123.0940068,47.1425696975452,fuel,76,,,,,,,,,,,,,,,,,,,,,,,,,,,,,,,,
-122.1370505,47.5776842975452,fuel,76,,,,,,,,,,,,,,,,,,,,,,,,,,,,,,,,
-122.2758751,47.5462426975452,fuel,76,,,,,,,,,,,,,,,,,,,,,,,,,,,,,,,,
-122.3322502,47.7084322975452,fuel,76,,,,,,,,,,,,,,,,,,,,,,,,,,,,,,,,
-122.3451868,47.7490672975452,fuel,76,,,,,,,,,,,,,,,,,,,,,,,,,,,,,,,,
-122.6265391,47.5416129975452,fuel,76,,,,,,,,,,,,,,,,,,,,,,,,,,,,,,,,
-122.0116555,47.8490120975452,fuel,76,,,,,,,,,,,,,,,,,,,,,,,,,,,,,,,,
-122.118836,47.8472637975452,fuel,76,,,,,,,,,,,,,,,,,,,,,,,,,,,,,,,,
-122.3646583,47.7648821975452,fuel,76,,,,,,,,,,,,,,,,,,,,,,,,,,,,,,,,
-122.03764,47.9859769975452,fuel,76,,,,,,,,,,,,,,,,,,,,,,,,,,,,,,,,
-122.186268,48.0525207975452,fuel,76,,,,,,,,,,,,,,,,,,,,,,,,,,,,,,,,
-122.3653418,48.4302542975452,fuel,76,,,,,,,,,,,,,,,,,,,,,,,,,,,,,,,,
-122.2218235,47.3230588975452,fuel,76',76,,,,,,,,,,,,,,,,,,,,,,,,,,,,,,,
-122.449191,48.9442170975452,fuel,76 Gas Station,76 ,112 ,Front Street,98264,Lynden,+1 360-354-3629,,https://www.76.com/,76 ,,,,,,,,,,,,,,,,yes,yes,,,,,,yes
-122.2926599,47.1626200975452,fuel,7-Eleven,7-Eleven,,,,,,24/7,,,,,,,,,,,,,,,,,,,,,,,,,
-122.2804117,47.8827630975452,fuel,7-Eleven,7-Eleven,,,,,,,,,,,,Q259340,en:7-Eleven,,,,,,,,,,,,,,,,,,
-122.3007033,47.9218347975452,fuel,7-Eleven,,8410,Mukilteo Speedway,98275,Mukilteo,,24/7,,,,WA,,,,,,,,,,,,,,,,,,,,,
-122.800855,47.0374532975452,fuel,7-Eleven,,,,,,,24/7,,,,,,,,,,,,,,,,,,,,,,,,,
-122.4775168,47.2554532975452,fuel,7-Eleven,,,,,,,24/7,,,,,,,,,,,,,,,,,,,,,,,,,
-122.075005,47.5799156975452,fuel,7-Eleven,,,,,,,24/7,,,,,,,,,,,,,,,,,,,,,,,,,
-122.1540725,47.6312503975452,fuel,7-Eleven,,,,,,,24/7,,,,,,,,,,,,,,,,,,,,,,,,,
-122.3280501,47.6648265975452,fuel,7-Eleven,,,,,,,24/7,,,,,,,,,,,,,,,,,,,,,,,,,
-122.2274112,47.9221907975452,fuel,7-Eleven,,,,,,,24/7,,,,,,,,,,,,,,,,,,,,,,,,,
-119.2793752,46.2940790975452,fuel,7-Eleven,,,,,,,,,,,,,,,,,,,,,,,,,,,,,,,,
-119.2733006,46.3186836975452,fuel,7-Eleven,,,,,,,,,,,,,,,,,,,,,,,,,,,,,,,,
-120.5485852,46.9993060975452,fuel,7-Eleven,,,,,,,,,,,,,,,,,,,,,,,,,,,,,,,,
-123.8413082,46.9749480975452,fuel,7-Eleven,,,,,,,,,,,,,,,,,,,,,,,,,,,,,,,,
-120.5332538,47.0022181975452,fuel,7-Eleven,,,,,,,,,,,,,,,,,,,,,,,,,,,,,,,,
-122.4724303,47.2144543975452,fuel,7-Eleven,,,,,,,,,,,,,,,,,,,,,,,,,,,,,,,,
-122.4659711,47.2423775975452,fuel,7-Eleven,,,,,,,,,,,,,,,,,,,,,,,,,,,,,,,,
-122.6091848,47.5189860975452,fuel,7-Eleven,,,,,,,,,,,,,,,,,,,,,,,,,,,,,,,,
-122.6145022,48.5127994975452,fuel,7-Eleven,,,,,,,,,,,,,,,,,,,,,,,,,,,,,,,,
-122.2037452,48.7157781975452,fuel,Acme General Store,,2035,Valley Hwy,98220,Bellingham,+1-360-595-2146,,,,,,,,,,,,,,,,,,,,,,,,,,
-122.9177646,46.9688920975452,fuel,Airport Fuel Farm,Commercial Fuel Network,,,,,,,http://www.cfnnet.com/Washington/tumwater.html,Don Small & Sons,,,,,,,,,,,,,,,,,,,,,,,
-122.4332768,47.1187781975452,fuel,Albertsons Gas,,,,,,,,,,,,,,,,,,,,,,,,,,,,,,,,
-119.979314,46.3089197975452,fuel,Ameristar,,,,,,,,,,,,Ameristar,,,,,,,,,,,,,,,,,,,,
-122.6996591,47.1650774975452,fuel,Anderson Island Gas Station,,10202,Eckenstam Johnson Road,98303,Anderson Island,,,,,,WA,,,,,,,,,,,,,,,,,,,,,
-122.3362076,47.4599067975452,fuel,Andy's,,,,,,,,,,,,,,,,,,,,,,,,,,,,,,,,
-122.2982662,47.8206265975452,fuel,Arco,Arco,4806,196th Street Southwest,98036,,+1-425-361-7258,24/7,https://arco.com,,,,,Q304769,en:ARCO,,,,,,,,,,,,,,,,,,
-122.9745094,46.7262007975452,fuel,Arco,Arco,916,Harrison Avenue,98531,Centralia,+1-360-736-2041,24/7,https://www.arco.com/,ARCO,,WA,,Q304769,en:ARCO,,,,,,,,,,,,,,,,,,
-122.2934345,47.1508715975452,fuel,Arco,Arco,,,,,+1-253-445-2530,24/7,https://www.arco.com/,,,,,Q304769,en:ARCO,,,,,,,,,,,,,,,,,,
-123.8245127,46.9693500975452,fuel,Arco,Arco,,,,,,,,,yes,,,,,,,,,,,,,,,,,yes,,,,yes,
-120.5213968,46.6647384975452,fuel,Arco,Arco,,,,,,,,,,,,Q304769,en:ARCO,,,,,,,,,,,,,,,,,,
-122.3559758,47.0960426975452,fuel,Arco,Arco,,,,,,,,,,,,Q304769,en:ARCO,,,,,,,,,,,,,,,,,,
-122.285691,47.8900744975452,fuel,Arco,Arco,,,,,,,,,,,,Q304769,en:ARCO,,,,,,,,,,,,,,,,,,
-122.1434772,47.6823549975452,fuel,Arco,Arco,,,,,,,,,,,,,,,,,,,,,,,,,,,,,,,
-122.7222738,47.0656862975452,fuel,Arco,ARCO,,,,,,,,,,,,,,,,,,,,,,,,,,,,,,,
-122.5531658,45.7091239975452,fuel,Arco,,,,,,,,,,,,,,,,,,,,,,,,,,,,,,,,
-120.5098608,46.5709654975452,fuel,Arco,,,,,,,,,,,,,,,,,,,,,,,,,,,,,,,,
-122.2113097,47.9635064975452,fuel,Arco,,,,,,,,,,,,,,,,,,,,,,,,,,,,,,,,
-122.1754757,47.7043385975452,fuel,ARCO,Arco,11600,124th Avenue Northeast,98034,,+14252962251,24/7,https://arco.com,,,,,,,,,,,,,,,,,,,,,,,,
-122.3104218,47.7341621975452,fuel,ARCO,Arco,,,,,,24/7,https://www.arco.com/,,,,,,,,,,,,,,,,,,,,,,,,
-121.776283,47.8685492975452,fuel,ARCO,Arco,,,,,,24/7,,,,,,,,,,,,,,,,,,,,,,,,,
-119.9780366,46.3092032975452,fuel,ARCO,Arco,,,,,,,,,,,ARCO,,,,,,,,,,,,,,,,,,,,
-122.2942348,47.0526876975452,fuel,ARCO,Arco,,,,,,,,,,,,Q304769,en:ARCO,,,,,,,,,,,,,,,,,,
-120.7074431,46.7300653975452,fuel,ARCO,Arco,,,,,,,,,,,,,,,,,,,,,,,,,,,,,,,
-121.8883743,47.5671349975452,fuel,ARCO,Arco,,,,,,,,,,,,,,,,,,,,,,,,,,,,,,,
-122.1537127,47.4485215975452,fuel,ARCO,Arco,,,,,,,,,,,,,,,,,,,,,,,,,,,,,,,
-122.3487698,47.4813655975452,fuel,ARCO,ARCO,13515,Ambaum Boulevard Southwest,98146-3169,Burien,,,,,,WA,,Q304769,,US,,convenience,,,,,,,,,,,,,,,
-122.2928594,47.1117490975452,fuel,ARCO,ARCO,,,,,,,,,,,ARCO,,,,,,,,,,,,,,,,,,,,
-122.9568898,46.6471458975452,fuel,ARCO,ARCO,,,,,,,,,,,,,,,,,,,,,,,,,,,,,,,
-122.4777528,48.7142780975452,fuel,ARCO,,3002,Old Fairhaven Pkwy,98225,Bellingham,+1-360-756-0143,,,,,,,,,,,,,,,,,,,,,,,,,,
-122.4855668,48.7948362975452,fuel,ARCO,,4240,Meridian St,98225,Bellingham,+1-360-734-9588,,,,,,,,,,,,,,,,,,,,,,,,,,
-122.4859331,48.9406947975452,fuel,ARCO,,8247,Guide Meridian Road,98264,,+13603543410,Mo-Su 07:00-22:00,https://arco.com,,,,ARCO,,,,,,,,,,,,,,,,,,,,
-122.210435,47.7659670975452,fuel,ARCO,,,,,Bothell,,24/7,https://www.arco.com/,,,WA,,,,,,,,,,,,,,,,,,,,,
-122.4337542,47.1813362975452,fuel,ARCO,,,,,,+1-253-474-5348,24/7,https://www.arco.com/,,,,,,,,,,,,,,,,,,,,,,,,
-122.1658442,47.3583163975452,fuel,ARCO,,,,,,,24/7,https://www.arco.com/,Arco,no,,,,,,,,,no,,yes,,,,,,yes,,no,,no,
-123.0126769,46.8019079975452,fuel,ARCO,,,,,,,24/7,https://www.arco.com/,,,,,,,,,,,,,,,,,,,,,,,,
-122.152847,47.1677094975452,fuel,ARCO,,,,,,,24/7,https://www.arco.com/,,,,,,,,,,,,,,,,,,,,,,,,
-122.1872514,47.1777592975452,fuel,ARCO,,,,,,,24/7,https://www.arco.com/,,,,,,,,,,,,,,,,,,,,,,,,
-122.2437794,47.2034920975452,fuel,ARCO,,,,,,,24/7,https://www.arco.com/,,,,,,,,,,,,,,,,,,,,,,,,
-122.4841115,47.1662399975452,fuel,ARCO,,,,,,,24/7,https://www.arco.com/,,,,,,,,,,,,,,,,,,,,,,,,
-122.1929283,47.2886904975452,fuel,ARCO,,,,,,,24/7,https://www.arco.com/,,,,,,,,,,,,,,,,,,,,,,,,
-122.0359822,47.5384558975452,fuel,ARCO,,,,,,,24/7,https://www.arco.com/,,,,,,,,,,,,,,,,,,,,,,,,
-122.0596399,47.5515933975452,fuel,ARCO,,,,,,,24/7,https://www.arco.com/,,,,,,,,,,,,,,,,,,,,,,,,
-122.1675135,47.6277945975452,fuel,ARCO,,,,,,,24/7,https://www.arco.com/,,,,,,,,,,,,,,,,,,,,,,,,
-122.1661679,47.7539873975452,fuel,ARCO,,,,,,,24/7,https://www.arco.com/,,,,,,,,,,,,,,,,,,,,,,,,
-122.2064099,47.8784911975452,fuel,ARCO,,,,,,,24/7,https://www.arco.com/,,,,,,,,,,,,,,,,,,,,,,,,
-120.6619848,47.0537515975452,fuel,ARCO,,,,,,,24/7,,,yes,,,,,,,,,,,,yes,,,,,,,,,,
-120.1798671,46.3447958975452,fuel,ARCO,,,,,,,24/7,,,,,ARCO,,,,,,,,,,,,,,,,,,,,
-120.4756524,46.5627193975452,fuel,ARCO,,,,,,,,,,,,ARCO,,,,,,,,,,,,,,,,,,,,
-122.5891944,46.9328874975452,fuel,ARCO,,,,,,,,,,,,,,,,,,,,,,,,,,,,,,,,
-122.4627113,47.2505376975452,fuel,ARCO,,,,,,,,,,,,,,,,,,,,,,,,,,,,,,,,
-122.1864208,47.3866326975452,fuel,ARCO,,,,,,,,,,,,,,,,,,,,,,,,,,,,,,,,
-122.6767302,47.6539171975452,fuel,ARCO,,,,,,,,,,,,,,,,,,,,,,,,,,,,,,,,
-122.2242794,47.9255185975452,fuel,ARCO,,,,,,,,,,,,,,,,,,,,,,,,,,,,,,,,
-122.2015591,47.9934160975452,fuel,ARCO,,,,,,,,,,,,,,,,,,,,,,,,,,,,,,,,
-119.0393259,46.9708002975452,fuel,Astro,,,,,,,,,,,,,,,,,,,,,,,,,,,,,,,,
-120.5428921,46.9765548975452,fuel,Astro,,,,,,,,,,,,,,,,,,,,,,,,,,,,,,,,
-122.9367196,46.1373038975452,fuel,Astro,,,,,,,,,,,,,,,,,,,,,,,,,,,,,,,,
-122.9367947,46.1372165975452,fuel,Astro,,,,,,,,,,,,,,,,,,,,,,,,,,,,,,,,
-122.1833792,48.1347618975452,fuel,Astro,,,,,,,,,,,,,,,,,,,,,,,,,,,,,,,,
-122.389441,47.9317332975452,fuel,Bailey's Corner Store,Chevron,,,,,,,,,,,,,,,,,,,,,,,,,,,,,,,
-122.398725,48.8034720975452,fuel,Baker Bear Grocery,,1706,Mt Baker Hwy,98226,Bellingham,+1-360-734-3000,,,,,,,,,,,,,,,,,,,,,,,,,,
-122.4430444,48.7891033975452,fuel,Bakerview Shell,Shell,2433,East Bakerview Road,98226,Bellingham,+1-360-671-9101,,,Shell,,,,,,,,,,,,,,,,yes,no,,,,,,yes
-122.4495015,47.2647642975452,fuel,Ball Auto,,,,,,,,,,,,,,,,,,,,,,,,,,,,,,,,
-122.4592936,48.0008468975452,fuel,Bayview Mobil,Mobil,,,,,,,,Liberty Fuels,,,,,,,,,,,,,,,,,,,,,,,
-122.6898814,45.7074263975452,fuel,B&B Gas & Groceries,,,,,,,,,,yes,,,,,,,,yes,,,,,yes,,,,,,,,,
-118.7368121,48.6419129975452,fuel,Beaver Trap Junction,Shell,1201,South Clark Avenue,99166,Republic,,,,,yes,WA,,,,,,,,,,,yes,,,,,,,,,,
-118.388315,46.0382253975452,fuel,Beeline Automotive,Independent,,,,,,,,,,,,,,,,,,,,,,,,,,,,,,,
-120.004349,47.8398120975452,fuel,Bills Gas,,,,,,,,,,,,,,,,,,,,,,,,,,,,,,,,
-122.6793859,48.4924590975452,fuel,Boat Fueling Station,,,,,,,,,,,,Boat Fueling Station,,,,,,,,,,,,,,,,,,,,
-122.131077,47.7618112975452,fuel,BP,,,,,,,,,,,,,,,,,,,,,,,,,,,,,,,,
-122.897503,47.6937719975452,fuel,Brinnon Fuels,Tesoro,,,,,,,,,,,,,,,,,,,,,,,,,,,,,,,
-122.3344006,47.4701892975452,fuel,B TOWN 76,76,14807,1st Avenue South,98168,Burien,1 (206) 242-4622,,https://www.76.com/,,,WA,,,,US,,,,,,,,,,,,,,,,,
-117.3653794,46.8901877975452,fuel,Bush,,,West Walla Walla Highway,,Colfax,,,,,,WA,,,,US,,,,,,,,,,,,,,,,,
-119.8803882,46.2531614975452,fuel,Cenex,Cenex,,,,,,,,,,,Cenex,,,,,,,,,,,,,,,,,,,,
-117.3638373,46.8883472975452,fuel,Cenex,,,,,,,,,,yes,,,,,,,,,,,,,,,,,,,,,,
-119.8594695,47.0832883975452,fuel,CENEX,,,,,,,,,,,,,,,,,,,,,,,,,,,,,,,,
-117.3717069,47.6633056975452,fuel,Cenex TRENT CARDTROL,,,,,,,,,,,,,,,,,,,,,,,,,,,,,,,,
-120.4730299,46.5810841975452,fuel,CFN,,,,,,,,,,,,CFN,,,,,,,,,,,,,,,,,,,,
-122.9056643,46.6071279975452,fuel,CFN,,,,,,,,,,,,,,,,,,,,,,,,,,,,,,,,
-121.9852008,47.2009477975452,fuel,CFN,,,,,,,,,,,,,,,,,,,,,,,,,,,,,,,,
-122.3371813,47.2338613975452,fuel,CFN,,,,,,,,,,,,,,,,,,,,,,,,,,,,,,,,
-119.0514345,48.9452061975452,fuel,Chesaw Highland Store,,2047,Chesaw Rd,98844-9662,Oroville,+1-509-485-2999,,,,,,,,,,,,,,,,,,,,,,,,,,
-121.8861402,45.6928745975452,fuel,Cheveron,,,,,,,,,,,,,,,,,,,,,,,,,,,,,,,,
-122.7050677,45.8504322975452,fuel,Cheveron,,,,,,,,,,,,,,,,,,,,,,,,,,,,,,,,
-122.4754357,47.2222451975452,fuel,Chevron,Chevron,3002,E 72nd Street,98409,Tacoma,+1-253-472-2345,,https://www.chevron.com/,,,WA,,Q319642,en:Chevron Corporation,US,yes,,,,,,,,"Tacoma; Washington; USA",,,,,,,,
-122.7491203,48.9977979975452,fuel,Chevron,Chevron,347,D Street,,Blaine,,,,,,,,Q319642,en:Chevron Corporation,,,,,,,,,,,,,,,,,,
-122.2146149,48.8242410975452,fuel,Chevron,Chevron,5047,Mount Baker Hwy,98244,Deming,+1-360-592-4214,,,,,,,,,,,,,,,,,,,,,,,,,,
-122.3578584,47.2392200975452,fuel,Chevron,Chevron,5319,20th Street E,98424-1915,Fife,+1-425-829-3640,,https://www.chevron.com/,,,WA,,Q319642,en:Chevron Corporation,,roof,,,,,,,,,,,,,,,,
-122.4630397,48.7561324975452,fuel,Chevron,Chevron,900,Iowa St,98225,Bellingham,,,,,,,,,,,,,,,,,,,,,,,,,,,
-122.4205524,47.1920392975452,fuel,Chevron,Chevron,,,,,+1-253-475-4981,,https://www.chevron.com/,,,,,Q319642,en:Chevron Corporation,,,,,,,,,,,,,,,,,,
-123.3684381,46.1980084975452,fuel,Chevron,Chevron,,,,,,,,,yes,,,,,,,,,no,,,,,,,,,,,,,
-117.3640119,46.8907301975452,fuel,Chevron,Chevron,,,,,,,,,yes,,,,,,,,,,,,,,,,,,,,,,
-118.6687693,46.0404941975452,fuel,Chevron,Chevron,,,,,,,,,,,Chevron,,,,,,,,,,,,,,,,,,,,
-120.0206434,46.3089844975452,fuel,Chevron,Chevron,,,,,,,,,,,Chevron,,,,,,,,,,,,,,,,,,,,
-119.8536569,47.2330617975452,fuel,Chevron,Chevron,,,,,,,,,,,,Q319642,en:Chevron Corporation,,,,,,,,,,,,,,,,,,
-122.9060941,46.1848835975452,fuel,Chevron,Chevron,,,,,,,,,,,,Q319642,en:Chevron Corporation,,,,,,,,,,,,,,,,,,
-122.2200035,47.4795601975452,fuel,Chevron,Chevron,,,,,,,,,,,,Q319642,en:Chevron Corporation,,,,,,,,,,,,,,,,,,
-122.1594972,47.7546598975452,fuel,Chevron,Chevron,,,,,,,,,,,,Q319642,en:Chevron Corporation,,,,,,,,,,,,,,,,,,
-122.2799451,47.8833478975452,fuel,Chevron,Chevron,,,,,,,,,,,,Q319642,en:Chevron Corporation,,,,,,,,,,,,,,,,,,
-121.8133377,47.8621322975452,fuel,Chevron,Chevron,,,,,,,,,,,,,,,roof,,,,,,,,,,,,,,,,
-122.8914419,47.0399304975452,fuel,Chevron,Chevron,,,,,,,,,,,,,,,,convenience,,,,,,,,,,,,,,,
-119.999631,46.3278759975452,fuel,Chevron,Chevron,,,,,,,,,,,,,,,,,,,,,,,,,,,,,,,
-120.3275735,46.3751781975452,fuel,Chevron,Chevron,,,,,,,,,,,,,,,,,,,,,,,,,,,,,,,
-120.6951666,46.7269699975452,fuel,Chevron,Chevron,,,,,,,,,,,,,,,,,,,,,,,,,,,,,,,
-122.27573,46.5538927975452,fuel,Chevron,Chevron,,,,,,,,,,,,,,,,,,,,,,,,,,,,,,,
-122.9552459,46.6463652975452,fuel,Chevron,Chevron,,,,,,,,,,,,,,,,,,,,,,,,,,,,,,,
-120.9407675,47.1949619975452,fuel,Chevron,Chevron,,,,,,,,,,,,,,,,,,,,,,,,,,,,,,,
-121.9893426,47.2141050975452,fuel,Chevron,Chevron,,,,,,,,,,,,,,,,,,,,,,,,,,,,,,,
-120.4537074,47.5196788975452,fuel,Chevron,Chevron,,,,,,,,,,,,,,,,,,,,,,,,,,,,,,,
-121.7770348,47.8675865975452,fuel,Chevron,Chevron,,,,,,,,,,,,,,,,,,,,,,,,,,,,,,,
-122.7412698,47.0609871975452,fuel,Chevron,Chevron,,,,,,,,,,,,,,,,,,,,,,,,,,,,,,,
-122.7216569,47.0657884975452,fuel,Chevron,Chevron,,,,,,,,,,,,,,,,,,,,,,,,,,,,,,,
-122.3345438,47.5495204975452,fuel,Chevron,Chevron,,,,,,,,,,,,,,,,,,,,,,,,,,,,,,,
-122.2332735,47.7560094975452,fuel,Chevron,Chevron,,,,,,,,,,,,,,,,,,,,,,,,,,,,,,,
-122.5014136,48.3904864975452,fuel,Chevron,Chevron,,,,,,,,,,,,,,,,,,,,,,,,,,,,,,,
-123.0039779,48.0201382975452,fuel,Chevron,Chevron,,,,,,,,,,,,,,,,,,,,,,,,,,,,,,,
-123.1721234,48.0790118975452,fuel,Chevron,Chevron,,,,,,,,,,,,,,,,,,,,,,,,,,,,,,,
-122.2932722,47.1495814975452,fuel,Chevron,,11722,E Meridian Avenue,98373,Puyallup,,,https://www.chevron.com/,,,WA,,,,US,yes,,,,,,,,,,,,,,,,
-122.4582975,48.7723261975452,fuel,Chevron,,1208,E Sunset Dr,98226-3505,Bellingham,+1-360-715-3848,,,,,,,,,,,,,,,,,,,,,,,,,,
-122.4125822,47.2421218975452,fuel,Chevron,,1440,Puyallup Avenue,98421,Tacoma,+1-253-572-4675,24/7,,,,WA,,,,,,,,,,,,,,,,,,,,,
-122.291978,47.2053531975452,fuel,Chevron,,204,Valley Avenue Northeast,98372,Puyallup,+1-253-845-7564,,https://www.chevronwithtechron.com/,,,WA,,,,US,yes,,,,,,,,"Puyallup; Washington; USA",,,,,,,,
-122.471262,48.7447840975452,fuel,Chevron,,310,Lakeway Dr,98225-5215,Bellingham,+1-360-734-8690,,,,,,,,,,,,,,,,,,,,,,,,,,
-122.4750012,48.7297252975452,fuel,Chevron,,505,32nd St,98225,Bellingham,,,,,,,,,,,,,,,,,,,,,,,,,,,
-122.2940514,47.1876782975452,fuel,Chevron,,516,South Meridian,98371-5910,Puyallup,+1-253-881-1191,,https://www.chevronwithtechron.com/,,,WA,,,,US,yes,,,,,,,,"Puyallup; Washington; USA",,,,,,,,
-122.1059361,48.0040983975452,fuel,Chevron,,621,,98258-8525,, 1-425-334-1333,24/7,http://chevronwithtechron.com,,,,,,,,,,,,,,,,,,,,,,,,
-122.4859352,48.9388226975452,fuel,Chevron,,8195,Guide Meridian Road,98264-9230,Lynden,+1 (360) 354-0797,Mo-Su 06:00-23:00,http://chevronwithtechron.com,Chevron Corp.,,,,,,,,,,,,,,,,,,,,,,,
-121.8306133,47.8585254975452,fuel,Chevron,,,,,,,24/7,,,,,,,,,,,,,,,,,,,,,,,,,
-122.2525839,47.2497193975452,fuel,Chevron,,,,,,,24/7,,,,,,,,,,,,,,,,,,,,,,,,,
-122.0367257,47.5377058975452,fuel,Chevron,,,,,,,24/7,,,,,,,,,,,,,,,,,,,,,,,,,
-121.9755167,45.6398841975452,fuel,Chevron,,,,,,,Mo-Su 05:00-21:00,,,yes,,,,,,,,,,,,,,,,,,,,,,
-121.8813558,45.6949392975452,fuel,Chevron,,,,,,,,,Chevron,,,,,,,,,,,,,,,,,,,,,,,
-122.9783507,46.7283603975452,fuel,Chevron,,,,,,,,,Chevron,,,,,,,,,,,,,,,,,,,,,,,
-119.2818444,46.3007044975452,fuel,Chevron,,,,,,,,,,,,Chevron,,,,,,,,,,,,,,,,,,,,
-119.9217089,46.2675056975452,fuel,Chevron,,,,,,,,,,,,Chevron,,,,,,,,,,,,,,,,,,,,
-120.2778035,46.4060911975452,fuel,Chevron,,,,,,,,,,,,Chevron,,,,,,,,,,,,,,,,,,,,
-122.3151932,47.5241334975452,fuel,Chevron,,,,,,,,,,,,Chevron,,,,,,,,,,,,,,,,,,,,
-122.0107703,48.0715126975452,fuel,Chevron,,,,,,,,,,,,Chevron,,,,,,,,,,,,,,,,,,,,
-122.2276006,47.6208689975452,fuel,Chevron,,,,,,,,,,,,,,,,,car_repair,,,,,,,,,,,,,,,
-119.2463028,47.1020658975452,fuel,Chevron,,,,,,,,,,,,,,,,,,,,,,,,,,,,,,,,
-120.5416555,46.9757505975452,fuel,Chevron,,,,,,,,,,,,,,,,,,,,,,,,,,,,,,,,
-121.9570107,46.5355248975452,fuel,Chevron,,,,,,,,,,,,,,,,,,,,,,,,,,,,,,,,
-123.0193702,46.9020262975452,fuel,Chevron,,,,,,,,,,,,,,,,,,,,,,,,,,,,,,,,
-120.5858983,47.0059763975452,fuel,Chevron,,,,,,,,,,,,,,,,,,,,,,,,,,,,,,,,
-122.0496079,47.1287647975452,fuel,Chevron,,,,,,,,,,,,,,,,,,,,,,,,,,,,,,,,
-122.0380399,47.1581762975452,fuel,Chevron,,,,,,,,,,,,,,,,,,,,,,,,,,,,,,,,
-122.1433802,47.1671591975452,fuel,Chevron,,,,,,,,,,,,,,,,,,,,,,,,,,,,,,,,
-122.1847311,47.1747439975452,fuel,Chevron,,,,,,,,,,,,,,,,,,,,,,,,,,,,,,,,
-122.5842581,47.2751083975452,fuel,Chevron,,,,,,,,,,,,,,,,,,,,,,,,,,,,,,,,
-123.0918771,47.1999371975452,fuel,Chevron,,,,,,,,,,,,,,,,,,,,,,,,,,,,,,,,
-123.0096406,47.2660383975452,fuel,Chevron,,,,,,,,,,,,,,,,,,,,,,,,,,,,,,,,
-123.849218,47.4661071975452,fuel,Chevron,,,,,,,,,,,,,,,,,,,,,,,,,,,,,,,,
-122.2976155,47.5781143975452,fuel,Chevron,,,,,,,,,,,,,,,,,,,,,,,,,,,,,,,,
-122.3448137,47.7417968975452,fuel,Chevron,,,,,,,,,,,,,,,,,,,,,,,,,,,,,,,,
-122.669343,47.6874587975452,fuel,Chevron,,,,,,,,,,,,,,,,,,,,,,,,,,,,,,,,
-122.109756,47.8015080975452,fuel,Chevron,,,,,,,,,,,,,,,,,,,,,,,,,,,,,,,,
-122.1167502,47.8486839975452,fuel,Chevron,,,,,,,,,,,,,,,,,,,,,,,,,,,,,,,,
-122.3135036,47.7768974975452,fuel,Chevron,,,,,,,,,,,,,,,,,,,,,,,,,,,,,,,,
-122.2289414,47.9216345975452,fuel,Chevron,,,,,,,,,,,,,,,,,,,,,,,,,,,,,,,,
-122.201882,47.9821519975452,fuel,Chevron,,,,,,,,,,,,,,,,,,,,,,,,,,,,,,,,
-122.5695273,47.8044417975452,fuel,Chevron,,,,,,,,,,,,,,,,,,,,,,,,,,,,,,,,
-122.2573619,48.5017133975452,fuel,Chevron,,,,,,,,,,,,,,,,,,,,,,,,,,,,,,,,
-122.2652836,48.9965024975452,fuel,Chevron,,,,,,,,,,,,,,,,,,,,,,,,,,,,,,,,
-122.7259052,48.9355185975452,fuel,Chevron,,,,,,,,,,,,,,,,,,,,,,,,,,,,,,,,
-122.8069464,46.9969877975452,fuel,Chevron Gas Station,,,,,,,,,,,,,,,,,,,no,,,,,,,,,,yes,,,
-121.9751074,48.0830372975452,fuel,Chevron Station,Chevron,,,,,,,,,,,,,,,,convenience,,,,,,,,,,,,,,,
-120.7005055,46.7285784975452,fuel,Circle K,Exxon,,,,,,,,,,,,,,,,,,,,,,,,,,,,,,,
-122.4733892,47.2146711975452,fuel,Circle K,,,,,,,,,,,,,,,,,,,,,,,,,,,,,,,,
-119.4415227,48.7049048975452,fuel,Coleman Oil,,,,,,,,,,,,,,,,,,,,,,,,,,,,,,,,
-117.8767617,47.6696737975452,fuel,Colville's Too,,,,,,,,,,yes,,,,,,,,,,,,,,,,,,,,,,
-120.6612486,47.0535539975452,fuel,Comdata CFN,,,,,,,24/7,,,,,Throp Fuel,,,,,,,,,,,,,,,,,,,,
-120.0206192,46.3082340975452,fuel,Conoco,Conoco,,,,,,,,,,,Conoco,,,,,,,,,,,,,,,,,,,,
-120.5381169,46.9706967975452,fuel,Conoco,Conoco,,,,,,,,,,,Conoco,,,,,,,,,,,,,,,,,,,,
-119.7599022,46.2110838975452,fuel,Conoco,Conoco,,,,,,,,,,,,,,,,,,,,,,,,,,,,,,,
-119.9098226,46.2575773975452,fuel,Conoco,Conoco,,,,,,,,,,,,,,,,,,,,,,,,,,,,,,,
-119.9100801,46.2577219975452,fuel,Conoco,Conoco,,,,,,,,,,,,,,,,,,,,,,,,,,,,,,,
-120.3247196,46.3748820975452,fuel,Conoco,Conoco,,,,,,,,,,,,,,,,,,,,,,,,,,,,,,,
-120.3178209,46.3751946975452,fuel,Conoco,Conoco,,,,,,,,,,,,,,,,,,,,,,,,,,,,,,,
-120.5869983,47.0070638975452,fuel,Conoco,Conoco,,,,,,,,,,,,,,,,,,,,,,,,,,,,,,,
-119.4744757,46.2517888975452,fuel,Conoco,,,,,,,,,Conoco,,,Conoco,,,,,,,,,,,,,,,,,,,,
-118.7088659,47.7591865975452,fuel,Conoco,,,,,,,,,,yes,,,,,,,,,,,,,,,,,,,,,,
-118.7537818,46.7940530975452,fuel,Conoco,,,,,,,,,,,,Conoco,,,,,,,,,,,,,,,,,,,,
-117.1962615,47.6899266975452,fuel,Conoco,,,,,,,,,,,,Conoco,,,,,,,,,,,,,,,,,,,,
-120.1803222,46.3463267975452,fuel,Conoco,,,,,,,,,,,,Conoco,,,,,,,,,,,,,,,,,,,,
-117.3640078,46.8887041975452,fuel,Conoco,,,,,,,,,,,,,,,,,,,,,,,,,,,,,,,,
-119.2851282,46.3115286975452,fuel,Conoco,,,,,,,,,,,,,,,,,,,,,,,,,,,,,,,,
-119.8977689,46.2562216975452,fuel,Conoco,,,,,,,,,,,,,,,,,,,,,,,,,,,,,,,,
-119.248285,47.1013410975452,fuel,Conoco,,,,,,,,,,,,,,,,,,,,,,,,,,,,,,,,
-120.5076614,46.6063441975452,fuel,Conoco,,,,,,,,,,,,,,,,,,,,,,,,,,,,,,,,
-117.3041697,48.3373396975452,fuel,Conoco,,,,,,,,,,,,,,,,,,,,,,,,,,,,,,,,
-122.8688457,47.0452087975452,fuel,Conoco/Phillips,Union 76,,,,,,,,,,,,,,,,,,,,,,,,,,,,,,,
-123.0987656,48.0799600975452,fuel,Co-Op Farm & Garden,,,,,,,,,,,,,,,,,,,,,,,,,,,,,,,,
-122.2077097,47.9047217975452,fuel,Costco Gasoline,Costco Gasoline,10200,19th Avenue Southeast,98208,Everett,+1 425 379 7451,"Mo-Fr 10:00-20:30;Sa 09:30-18:00;Su 10:00-18:00",https://www.costco.com/,Costco,,WA,,Q715583,en:Costco,US,,,,,customers,,,,,,,,yes,,,,
-122.5135634,48.7900867975452,fuel,Costco Gasoline,Costco Gasoline,4125,Arctic Ave,98226,,+1-360-671-6947,,,Costco,yes,,,Q715583,en:Costco,,,,,,customers,,,,,,,yes,yes,,,,
-122.4681592,47.2235669975452,fuel,Costco Gasoline,Costco Gasoline,,South 37th Street,98409,,,,,Costco,,,,Q715583,en:Costco,,,,,,customers,,,,,,,,yes,,,,
-122.0507789,47.5503195975452,fuel,Costco Gasoline,Costco Gasoline,,,,,,"Mo-Fr 06:00-21:30; Sa,Su 07:00-19:00",,Costco,,,,Q715583,en:Costco,,,,,,customers,,,,,,,,yes,,,,
-122.918618,46.9963293975452,fuel,Costco Gasoline,Costco Gasoline,,,,,,,,Costco,,,,Q715583,en:Costco,,,,,,customers,,,,,,,,yes,,,,
-120.2811181,47.4032736975452,fuel,Costco Gasoline,Costco Gasoline,,,,,,,,Costco,,,,Q715583,en:Costco,,,,,,customers,,,,,,,,yes,,,,
-122.3084655,47.1572912975452,fuel,Costco Gasoline,Costco Gasoline,,,,,,,,Costco,,,,Q715583,en:Costco,,,,,,customers,,,,,,,,yes,,,,
-122.7604415,47.0580377975452,fuel,Costco Gasoline,Costco Gasoline,,,,,,,,,,,,Q715583,en:Costco,,,,,,,,,,,,,,,,,,
-122.8849055,48.6960268975452,fuel,Country Corner,Shell,837,Crescent Beach Dr,98245,Eastsound,+1-360-376-6900,,,,,,,,,,,,,,,,,,,,,,,,,,
-123.4498251,48.1187742975452,fuel,DEF Fuel,,,,,,,,,,,,,,,,,,,,,,,,,,,,,,,,
-122.5524432,48.9355402975452,fuel,Delta Gas & Grocery,,,,,,,,,,,,,,,,,,,,,,,,,,,,,,,,
-122.1885531,48.0998082975452,fuel,Donna's Truck Stop,Gull,,,,,,,,,,,,,,,,,,,,,,,,,,,,,,,
-122.3692805,47.6652557975452,fuel,Dr. Dan's Biodiesel,,912,Northwest 50th Street,98107,Seattle,,24/7,https://drdansbiodiesel.com,,,,,,,,,,,yes,,,,,,,,,,,,,
-117.4565291,47.6966090975452,fuel,Driscoll One Stop,,,,,,,,,,,,,,,,,,,,,,,,,,,,,,,,
-122.7495127,48.9978201975452,fuel,Exxon,Exxon,321,D Street,,Blaine,,,,,,WA,,Q4781944,en:Exxon,,,,,,,,,,,,,,,,,,
-119.2259223,46.2123363975452,fuel,Exxon,Exxon,,,,,,,,,,,,Q4781944,en:Exxon,,,,,,,,,,,,,,,,,,
-120.5426587,46.9775238975452,fuel,Exxon,Exxon,,,,,,,,,,,,Q4781944,en:Exxon,,,,,,,,,,,,,,,,,,
-122.2883146,48.8432982975452,fuel,Exxon,,3707,WA-542,98244,Deming,+1-(360) 592-0101,,,,,,,,,,,,,,,,,,,,,,,,,,
-119.2649331,46.1965883975452,fuel,Exxon,,,,,,,,,,,,Exxon,,,,,,,,,,,,,,,,,,,,
-119.2745795,46.2901152975452,fuel,Exxon,,,,,,,,,,,,Exxon,,,,,,,,,,,,,,,,,,,,
-119.1777292,46.1845413975452,fuel,Exxon,,,,,,,,,,,,,,,,,,,,,,,,,,,,,,,,
-119.2014733,46.2127194975452,fuel,Exxon,,,,,,,,,,,,,,,,,,,,,,,,,,,,,,,,
-119.3392798,46.2968801975452,fuel,Exxon,,,,,,,,,,,,,,,,,,,,,,,,,,,,,,,,
-119.0038414,47.9416920975452,fuel,Exxon,,,,,,,,,,,,,,,,,,,,,,,,,,,,,,,,
-122.8986562,47.0474615975452,fuel,Fast Fuel,,,,,,,,,,,,,,,,,,,,,,,,,,,,,,,,
-122.6693541,48.7312493975452,fuel,Fisherman's Cove Marina,,2557,Lummi View Dr,98226,Bellingham,+1-(360) 758-2450,,,,,,,,,,,,,,,,,,,,,,,,,,
-122.8457712,46.4392174975452,fuel,Flying K,,,,,,,,,,,,,,,,,,,,,,,,,,,,,,,,
-122.0399035,46.7596406975452,fuel,Flying K,,,,,,,,,,,,,,,,,,,,,,,,,,,,,,,,
-122.2074213,47.8796730975452,fuel,Fred Mayer Fuel Center,,,,,,,,,,,,,,,,,,,,,,,,,,,,,,,,
-122.2318729,47.9185882975452,fuel,Fred Meyer,,,,,,,,,Fred Meyer,,,,,,,,,,,,,,,,,,,,,,,
-119.1627252,46.1984174975452,fuel,Fred Meyer,,,,,,,,,,,,,,,,,,,,,,,,,,,,,,,,
-122.293126,47.8216647975452,fuel,Fred Meyer,,,,,,,,,,,,,,,,,,,,,,,,,,,,,,,,
-122.1502982,47.1674710975452,fuel,Fred Meyer Fuel,,,,,,,,,,,,,,,,,,,,,,,,,,,,,,,,
-122.4344382,47.1898966975452,fuel,Fred Meyer Fuel,,,,,,,,,,,,,,,,,,,,,,,,,,,,,,,,
-122.8323701,47.0395974975452,fuel,Fred Meyer Fuel,,,,,,,,,,,,,,,,,,,,,,,,,,,,,,,,
-122.1092111,47.9444287975452,fuel,Fred Meyer Fuel,,,,,,,,,,,,,,,,,,,,,,,,,,,,,,,,
-122.5798439,47.3078120975452,fuel,Fred Meyer Fuel Center,,5502,Point Fosdick Drive Northwest,98335,Gig Harbor,,,,Fred Meyer,,WA,,,,,,,,,,,,,,,,,,,,,
-120.5628486,46.6194119975452,fuel,Fred Meyer Fuel Center,,,,,,,,,,,,,,,,,,,,,,,,,,,,,,,,
-122.4978643,47.2431146975452,fuel,Fred Meyer Fuel Center,,,,,,,,,,,,,,,,,,,,,,,,,,,,,,,,
-122.2290185,47.2034315975452,fuel,Fred Meyer Fuel Stop,,,,,,,,,,,,,,,,,,,,,,,,,,,,,,,,
-122.9134175,46.9996040975452,fuel,Fred Meyer Gas,,,,,,,,,,,,,,,,,,,,,,,,,,,,,,,,
-122.5141913,48.7891755975452,fuel,Fred Meyer Gas Station,,1225,W Bakerview Rd,98226,,+1-360-788-2900,,,,,,,,,,,,,,,,,,,,,,,,,,
-122.4484625,48.7897663975452,fuel,Fuel Express,,2200,E Bakerview Rd,98226,Bellingham,+1-360-734-2201,,,,,,,,,,,,,,,,,,,,,,,,,,
-118.5224363,47.7584437975452,fuel,Gas,,,,,,,,,,,,,,,,,,,,,,,,,,,,,,,,
-122.337175,48.5066580975452,fuel,Gas & Go 76,76,9572,Old Highway 99 North,98233,Burlington,+1-360-757-3441,,http://76.com,,,,,,,,,,,,,,,,,,,,,,,,
-123.3656383,46.1971819975452,fuel,Gragg's General Store,Shell,,,,,,,,,,,,,,,,,,no,,,,,,,,,,,,,
-121.6576509,47.1576214975452,fuel,Greenwater General Store Gas,,,,,,,24/7,,,,,,,,,,,,,,,,,,,,,,,,,
-122.882656,47.1027050975452,fuel,Gull Harbor Mercantile,Shell,4932,Boston Harbor Road Northeast,98506,Olympia,13603524014,,,,,,,,,,,,,,,,,,,yes,no,,,,,,
-122.6073654,48.4296619975452,fuel,Harold's Market,,,,,,,,,,,,,,,,,,,,,,,,,,,,,,,,
-122.9709641,46.7231055975452,fuel,Harrison Super Mart,,,,,,,,,,,,,,,,,,,,,,,,,,,,,,,,
-121.4676685,45.7156040975452,fuel,Hatt's Fuel Stop,,,,,,,,,,,,,,,,,,,,,,,,,,,,,,,,
-122.312844,47.6239572975452,fuel,Hilltop Service Station,,525,15th Avenue East,98112,Seattle,,,,,,,,,,,,,,,,,,,,,,,,,,,
-122.4428073,48.8920012975452,fuel,Hinote's gas-Up,,,,,,,,,,,,,,,,,,,,,,,,,,,,,,,,
-122.1180471,47.1661070975452,fuel,Hi Way Gas,,,,,,,,,,,,,,,,,,,,,,,,,,,,,,,,
-122.3448103,48.4693082975452,fuel,Holiday Gas,,,,,,,,,,,,,,,,,,,,,,,,,,,,,,,,
-122.9379934,48.6785648975452,fuel,Island Hardware Supply,,21,West Beach Rd,98245,Eastsound,+1-360-376-4200,,,,,,,,,,,,,,,,,,,,,,,,,,
-122.9393694,48.6779449975452,fuel,Island Hardware & Supply,,21,West Beach Rd,98245,Eastsound,+1-360-376-4200,,,,,,,,,,,,,,,,,,,,,,,,,,
-122.8942761,46.9731947975452,fuel,Jorgensen Air Service,,,,,,,,,Jorgensen Air Service,,,,,,,,,,,,,,,,,,,,,,,
-123.7347394,48.1363322975452,fuel,Joyce General Store,,,,,,,,,,,,,,,,,,,,,,,,,,,,,,,,
-120.6577104,47.7583911975452,fuel,Just Plain Grocery and Gas,,,,,,,,,,,,,,,,,,,,,,,,,,,,,,,,
-122.0007665,47.2067396975452,fuel,Kangaroo,,,,,,,,,,,,,,,,,,,,,,,,,,,,,,,,
-123.0976387,47.1295194975452,fuel,KTP Express,,,,,,,,,,,,,,,,,,,,,,,,,,,,,,,,
-122.3019618,46.0510820975452,fuel,Lakeside Fuel,,,,,,,,,,,,,,,,,,,,,,,,,,,,,,,,
-122.9079167,46.6041109975452,fuel,Love's,,,,,,,,,Love's,,,,,,,,,,,,,,,,,,,,,,,
-118.3667325,47.1133080975452,fuel,Loves Travel Shop,,1370,N. Hwy 261,99169,Ritzville,,24/7,,,,WA,,,,,,,,,,,,,,,,,,,,,
-118.3667992,47.1135309975452,fuel,Loves Travel Shop #514,,1370,N Hwy 261,,,15096591005,24/7,,,,,,,,,,,,,,,,,,,,,,,,,
-122.6270501,48.8187365975452,fuel,Lummi Mini-Mart/Gas Station,,4884,Haxton Way,,,,,,,,,,,,,,,,,,,,,,,,,,,,,
-122.3999691,47.6393852975452,fuel,Magnolia 76,,,,,,,,,,,,,,,,,,,,,,,,,,,,,,,,
-122.4518484,47.2539349975452,fuel,Main Street Grocery,,,,,,,,,,,,,,,,,,,,,,,,,,,,,,,,
-124.6168877,48.3662326975452,fuel,Makah Mini-Mart,,931,Bayview Ave,98357,Neah Bay,+1-360-645-2802,,,,,,,,,,,,,,,,,,,,,,,,,,
-124.6171176,48.3661617975452,fuel,Makah Mini-Mart,,,,,,,,,,,,,,,,,convenience,,,,yes,,,,,,,,,,,
-121.6965915,47.8546349975452,fuel,Mann,Mann,,,,,,24/7,,,,,,,,,,,,,,,,,,,,,,,,,
-122.6278791,48.3983861975452,fuel,Marine Gas,,,,,,,,,,,,,,,,,,,,,,,,,,,,,,,,
-122.4251377,48.7498122975452,fuel,Market Fuel,,1480,Electric Ave,98229-2482,Bellingham,+1-360-671-7200,,,,,,,,,,,,,,,,,,,,,,,,,,
-122.469814,48.7535860975452,fuel,Market Fuel,,1715,N State St,98225-4604,Bellingham,+1-360-671-9498,,,,,,,,,,,,,,,,,,,,,,,,,,
-122.4416254,48.7628112975452,fuel,Market Fuel,,2410,Alabama St,98226-3955,Bellingham,+1-360-733-7883,,,,,,,,,,,,,,,,,,,,,,,,,,
-122.7302661,48.9623358975452,fuel,Market Fuel,,,,,,,,,,,,,,,,,,,,,,,,,,,,,,,,
-124.4120201,47.9660988975452,fuel,Masco Petroleum,Masco Petroleum,,,,,,,,,,,,,,,,,,,,,,,,,,,,,,,
-123.8019106,46.9694532975452,fuel,Masco Petroleum-Pacific Pride,Masco Petroleum-Pacific Pride,,,,,,,,Masco Petroleum-Pacific Pride,yes,,,,,,,,,,,,,,,,,,,,,,
-122.5896775,46.5221021975452,fuel,Mayfield Texaco,,,,,,,,,,,,,,,,,,yes,,,,,yes,,,,,,,yes,,
-122.4529242,48.7889620975452,fuel,McEvoy Commercial Fuel,,4046,Irongate Rd,98226,Bellingham,+1-360-734-5650,,,,,,,,,,,,,,,,,,,,,,,,,,
-122.4858844,48.7666756975452,fuel,Meridian Food Gas,,2730,Meridian St,98225,Bellingham,+1-360-778-3219,,,,,,,,,,,,,,,,,,,,,,,,,,
-119.1593127,46.2034374975452,fuel,Metro (Truck Stop),,,,,,,,,,,,Metro (Truck Stop),,,,,,,,,,,,,,,,,,,,
-121.6695635,46.6098981975452,fuel,Mobil,Shell,13053,HWY 12,98361,Packwood,,24/7,,,,,,,,,,,,,,,,,,,,,,,,,
-123.1562383,48.0764367975452,fuel,Mobil,Texaco,,,,,,,,,,,,,,,,,,,,,,,,,,,,,,,
-122.3358801,48.4517410975452,fuel,Mobil,USA Mini Mart,1815,South Burlington Boulevard,,,,24/7,,,,,,,,,,,,,,,,,,,,,,,,,
-121.8877026,47.5669498975452,fuel,Mobil,Valero,,,,,,,,,,,,,,,,,,,,,,,,,,,,,,,
-122.4595743,48.7567054975452,fuel,Mobil,,1115,Iowa St,98229,Bellingham,+1-360-733-1903,,,,,,,,,,,,,,,,,,,,,,,,,,
-122.750156,48.9973784975452,fuel,Mobil,,371,3rd Street,,Blaine,,,,,,,,,,,,,,,,,,,,,,,,,,,
-122.1393321,48.9168152975452,fuel,Mobil,,7519,Kendall Rd,98266-7818,Maple Falls,+1-360-599-2668,,,,,,,,,,,,,,,,,,,,,,,,,,
-122.9185976,46.1499696975452,fuel,Mobil,,,,,,,,,,,,,,,,,,,,,,,,,,,,,,,,
-123.8649734,46.9750596975452,fuel,Mobil,,,,,,,,,,,,,,,,,,,,,,,,,,,,,,,,
-122.1630249,47.1688133975452,fuel,Mobil,,,,,,,,,,,,,,,,,,,,,,,,,,,,,,,,
-122.7406691,47.0620464975452,fuel,Mobil,,,,,,,,,,,,,,,,,,,,,,,,,,,,,,,,
-122.3379725,47.4701472975452,fuel,Mobil,,,,,,,,,,,,,,,,,,,,,,,,,,,,,,,,
-122.3723584,47.6967039975452,fuel,Mobil,,,,,,,,,,,,,,,,,,,,,,,,,,,,,,,,
-122.3453314,47.6452075975452,fuel,Morrison's North Star Marine,,2732,Westlake Avenue North,98109,Seattle,206.284.6600,,http://www.morrisonsfueldock.com/index.html,,,,,,,,,,,,,,,,,,,,,,,,
-122.4347198,47.1574362975452,fuel,Pacific Pride,Pacific Pride,,,,,,,,,,,,Q7122637,en:Pacific Pride,,,,,,,,,,,,,,,,,,
-119.2988028,46.3001772975452,fuel,Pacific Pride,,0000,Terminal Drive,99354,Richland,,,,,,,,,,US,,,,,private,,,,,,,,,,,,
-120.1051046,48.3574518975452,fuel,Pacific Pride,,,,,,,,,Pacific Pride,,,,,,,,,,,,,,,,,,,,,,,
-122.8848413,46.9662344975452,fuel,Pacific Pride,,,,,,,,,,yes,,Pacific Pride,,,,,,,,,,,,,,,,,,,yes,
-119.6025709,45.9397403975452,fuel,Pacific Pride,,,,,,,,,,,,Pacific Pride,,,,,,,,,,,,,,,,,,,,
-119.0080462,47.9409100975452,fuel,Pacific Pride,,,,,,,,,,,,,,,,,,,,,,,,,,,,,,,,
-122.9041177,46.3915741975452,fuel,Pacific Pride,,,,,,,,,,,,,,,,,,,,,,,,,,,,,,,,
-122.9090421,46.6060099975452,fuel,Pacific Pride,,,,,,,,,,,,,,,,,,,,,,,,,,,,,,,,
-123.8411133,46.9672497975452,fuel,Pacific Pride,,,,,,,,,,,,,,,,,,,,,,,,,,,,,,,,
-120.2827528,47.5328436975452,fuel,Pacific Pride,,,,,,,,,,,,,,,,,,,,,,,,,,,,,,,,
-121.8174725,47.8618202975452,fuel,Pacific Pride,,,,,,,,,,,,,,,,,,,,,,,,,,,,,,,,
-122.2503327,47.2035171975452,fuel,Pacific Pride,,,,,,,,,,,,,,,,,,,,,,,,,,,,,,,,
-122.3705969,47.2428051975452,fuel,Pacific Pride,,,,,,,,,,,,,,,,,,,,,,,,,,,,,,,,
-120.9353024,47.1921707975452,fuel,Pacific Pride Commercial Fueling,,,,,,,,,,,,,,,,,,,,,,,,,,,,,,,,
-120.5806286,47.5529329975452,fuel,Pacific Pride Commercial Fueling,,,,,,,,,,,,,,,,,,,,,,,,,,,,,,,,
-117.9774223,46.3213328975452,fuel,PDQ,Chevron,,,,,,,,,yes,,,,,,,,,,,yes,,,,,,,,,,,
-119.1248708,46.2417648975452,fuel,Perro USA,,,,,,,24/7,,,,,,,,,,,,,,,,,,,,,,,,,
-122.9349907,46.9531262975452,fuel,Pilot,,,,,,,,,,,,,,,,,,,,,,,,,,,,,,,,
-122.9353285,46.9541622975452,fuel,Pilot,,,,,,,,,,,,,,,,,,,,,,,,,,,,,,,,
-118.6846743,48.6512544975452,fuel,Pinegrove Junction,,16267,State Highway 21,99166,Republic,,,,,yes,WA,,,,,,,,,,,yes,,,,,,,yes,,,
-122.3578345,48.2407901975452,fuel,QFC,QFC,,,,,,,,,,,,,,,,,,,,,,,,,,,,,,,
-122.827609,47.4537237975452,fuel,QFC Gas,,,,,,,,,,,,,,,,,,,,,,,,,,,,,,,,
-122.8811628,47.8294604975452,fuel,Quilcene Village Store,,,,,,,,https://quilcenevillagestore.com/,,yes,,,,,,,convenience,yes,,,,,,,,,,,,,,
-121.9240571,46.5336959975452,fuel,Randle One Stop,,,,,,,,,,,,,,,,,,,,,,,,,,,,,,,,
-118.7338405,48.6408281975452,fuel,Republic Chevron,Chevron,30267,14th Street,99166,Republic,,,,,yes,WA,,,,,,,,,,,yes,,,,,,,yes,,,
-122.9408258,46.9522470975452,fuel,RestoverTruck Center,,,,,,,,,,,,,,,,,,,,,,,,,,,,,,,,
-122.4292348,48.3654564975452,fuel,Rexville Grocery,,19272,Best Road,98273,,+1 360-466-5522,,,,,,,,,,,,,yes,,,,,,,,,,,,,
-122.2137654,48.2101346975452,fuel,River Rock Fuel,,,,,,,,,,,,,,,,,,,,,,,,,,,,,,,,
-123.1495446,48.6069374975452,fuel,Roche Harbor Resort,,9323,Roche Harbor Rd,98250,Roche Harbor,+1-360-378-2155,,,,,,,,,,,,,,,,,,,,,,,,,,
-121.9811246,47.1999342975452,fuel,Safeway,Safeway,235,Roosevelt Avenue,98022,Enumclaw,,24/7,,,,,,Q1508234,en:Safeway Inc.,,,,,,,,,,,,,,,,,,
-120.5313822,46.6027172975452,fuel,Safeway,Safeway,,,,,,,,,,,,Q1508234,en:Safeway Inc.,,,,,,,,,,,,,,,,,,
-122.1041925,48.0049940975452,fuel,Safeway 1803,Safeway,,,,,,,,Safeway,yes,,,,,,,,,,,,,,,,,,,,,yes,
-122.1044407,48.0035469975452,fuel,Safeway 1803 Fuel Station,Safeway,717,State Highway 9 Southeast,98258,,,,https://local.safeway.com/wa/lake-stevens-1803.html,Safeway,,,,,,,,,,,,,,,,,,,,,,,
-122.2191815,47.7778935975452,fuel,Safeway Gas,,,,,,,,,Safeway,,,,,,,,,,,,,,,,,,,,,,,
-122.2831443,47.3146760975452,fuel,Shell,RDS,,,,,,,,,,,,,,,,,,,,,,,,,,,,,,,
-122.457196,48.7737517975452,fuel,Shell,Shell,1301,E Sunset Dr,98226,Bellingham,+1-360-734-5650,,,,yes,,,Q154950,en:Royal Dutch Shell,,,,,,,,,,,,,,,,,,
-122.3343141,47.4721223975452,fuel,Shell,Shell,14605,1st Avenue South,98168-3423,Burien,1 (206) 248-2406,24/7,https://www.shell.com/,,,WA,,,,US,,,yes,,,,yes,yes,,,,,,,yes,,
-119.832914,47.1038590975452,fuel,Shell,Shell,16010,Road 1 Northwest,98848-9429,Quincy,+1-509-785-6111,,http://shell.us,,,,,,,,,,,,,,,,,yes,no,,,,,,
-122.2437396,48.2396538975452,fuel,Shell,Shell,26901,,,,,,,,,,,,,,,,,,,,,,,,,,,,,,
-122.2175438,48.8263793975452,fuel,Shell,Shell,4985,Mount Baker Hwy,98244,Deming,+1-360-592-5633,,,,,,,,,,,,,,,,,,,,,,,,,,
-122.0775733,48.9239194975452,fuel,Shell,Shell,7797,Silver Lake Rd,98266,Maple Falls,,,,,,,,,,,,,,,,,,,,,,,,,,,
-122.440493,48.9638020975452,fuel,Shell,Shell,8890,Bender Road,98264,Lynden,+1-360-318-8535,24/7,shell.com,,,,,,,,,,,,,,,,,yes,no,,,,,,
-122.2976476,46.9803996975452,fuel,Shell,Shell,,,,,,24/7,,,,,,,,,,,,,,,,,,,,,,,,,
-122.9089186,47.0007105975452,fuel,Shell,Shell,,,,,,,,,,,Shell,Q154950,en:Royal Dutch Shell,,,,,,,,,,,,,,,,,,
-122.6182043,47.5343657975452,fuel,Shell,Shell,,,,,,,,,,,Shell,,,,,,,,,,,,,,,,,,,,
-122.2156443,47.7916414975452,fuel,Shell,Shell,,,,,,,,,,,Shell,,,,,,,,,,,,,,,,,,,,
-121.9366853,47.5258555975452,fuel,Shell,Shell,,,,,,,,,,,,Q154950,en:Royal Dutch Shell,,,,,,,,,,,,,,,,,,
-122.8340896,47.0390930975452,fuel,Shell,Shell,,,,,,,,,,,,Q154950,en:Royal Dutch Shell,,,,,,,,,,,,,,,,,,
-122.9329371,47.0391181975452,fuel,Shell,Shell,,,,,,,,,,,,Q154950,en:Royal Dutch Shell,,,,,,,,,,,,,,,,,,
-122.5330391,47.2553428975452,fuel,Shell,Shell,,,,,,,,,,,,Q154950,en:Royal Dutch Shell,,,,,,,,,,,,,,,,,,
-122.1861195,47.8775829975452,fuel,Shell,Shell,,,,,,,,,,,,Q154950,en:Royal Dutch Shell,,,,,,,,,,,,,,,,,,
-122.2922295,47.8994424975452,fuel,Shell,Shell,,,,,,,,,,,,Q154950,en:Royal Dutch Shell,,,,,,,,,,,,,,,,,,
-122.8899741,46.4189461975452,fuel,Shell,Shell,,,,,,,,,,,,,,,,,,,,,,,,,,,,,,,
-122.2739374,46.5530353975452,fuel,Shell,Shell,,,,,,,,,,,,,,,,,,,,,,,,,,,,,,,
-122.9090045,46.6055937975452,fuel,Shell,Shell,,,,,,,,,,,,,,,,,,,,,,,,,,,,,,,
-123.737724,46.6811234975452,fuel,Shell,Shell,,,,,,,,,,,,,,,,,,,,,,,,,,,,,,,
-120.9813303,47.2075241975452,fuel,Shell,Shell,,,,,,,,,,,,,,,,,,,,,,,,,,,,,,,
-120.454344,47.5201804975452,fuel,Shell,Shell,,,,,,,,,,,,,,,,,,,,,,,,,,,,,,,
-120.2070223,47.6844336975452,fuel,Shell,Shell,,,,,,,,,,,,,,,,,,,,,,,,,,,,,,,
-120.5806172,47.5527578975452,fuel,Shell,Shell,,,,,,,,,,,,,,,,,,,,,,,,,,,,,,,
-120.014432,47.8400550975452,fuel,Shell,Shell,,,,,,,,,,,,,,,,,,,,,,,,,,,,,,,
-122.2060025,47.0990515975452,fuel,Shell,Shell,,,,,,,,,,,,,,,,,,,,,,,,,,,,,,,
-122.2935956,47.0752334975452,fuel,Shell,Shell,,,,,,,,,,,,,,,,,,,,,,,,,,,,,,,
-122.2868389,47.1561686975452,fuel,Shell,Shell,,,,,,,,,,,,,,,,,,,,,,,,,,,,,,,
-122.8458624,47.0415806975452,fuel,Shell,Shell,,,,,,,,,,,,,,,,,,,,,,,,,,,,,,,
-122.9308267,47.0463474975452,fuel,Shell,Shell,,,,,,,,,,,,,,,,,,,,,,,,,,,,,,,
-122.2131023,47.3077084975452,fuel,Shell,Shell,,,,,,,,,,,,,,,,,,,,,,,,,,,,,,,
-122.0367207,47.5387720975452,fuel,Shell,Shell,,,,,,,,,,,,,,,,,,,,,,,,,,,,,,,
-122.0349972,47.5834874975452,fuel,Shell,Shell,,,,,,,,,,,,,,,,,,,,,,,,,,,,,,,
-122.3295799,47.5800061975452,fuel,Shell,Shell,,,,,,,,,,,,,,,,,,,,,,,,,,,,,,,
-122.1263944,47.8342405975452,fuel,Shell,Shell,,,,,,,,,,,,,,,,,,,,,,,,,,,,,,,
-122.2662924,47.8209453975452,fuel,Shell,Shell,,,,,,,,,,,,,,,,,,,,,,,,,,,,,,,
-122.3738284,48.2408768975452,fuel,Shell,Shell,,,,,,,,,,,,,,,,,,,,,,,,,,,,,,,
-123.1725879,48.0798957975452,fuel,Shell,Shell,,,,,,,,,,,,,,,,,,,,,,,,,,,,,,,
-124.2589151,48.2489736975452,fuel,Shell,Shell,,,,,,,,,,,,,,,,,,,,,,,,,,,,,,,
-122.292788,47.2055972975452,fuel,Shell,,102,Valley Avenue Northeast,98372,Puyallup,+1-253-840-5359,,https://www.shell.com/,,,WA,,,,US,yes,,,,,,,,"Puyallup; Washington; USA",,,,,,,,
-122.3984113,48.6857141975452,fuel,Shell,,1215,Lake Samish Drive,98229-9310,Bellingham,+1-360-733-5467,,,,,,,,,,,,,,,,,,,,,,,,,,
-119.2640269,47.1167744975452,fuel,Shell,,1253,South Pioneer Way,,,5097659877,,https://find.shell.com/us/fuel/12498048-1253-s-pioneer-way/,Shell,yes,,,,,,,,,,,,,,,,,yes,,,,,
-122.3542699,48.6201066975452,fuel,Shell,,1454,Lake Samish Road,98226-7010,Bellingham,+1-360-734-5650,,,,,,,,,,,,,,,,,,,,,,,,,,
-122.2957912,47.4505169975452,fuel,Shell,,17010,International Boulevard,,,,24/7,,,,,,,,,,,,,,,,,,,,,,,,,
-119.2433327,46.2276449975452,fuel,Shell,,1900,North Steptoe Street,99352,Richland,,,,,,,,,,US,,,,,,,,,,,,,,,,,
-122.4639132,48.7553262975452,fuel,Shell,,1901,King St,98225-4236,Bellingham,+1-360-734-5650,"Mo-Th 05:30-23:30, Fr,Sa 07:00-01:00, Su 07:00-22:00",,,,,,,,,,,,,,,,,,,,,,,,,
-122.3308226,48.7109308975452,fuel,Shell,,1945,Lake Whatcom Blvd,98229-2768,Sudden Valley,+1-360-734-7031,,,,,,,,,,,,,,,,,,,,,,,,,,
-122.4730982,47.2227342975452,fuel,Shell,,2631,S 38th Street,98409-7355,Tacoma,+1-253-476-0569,,https://www.shell.us/,,,WA,,,,,yes,,,,,,,,"Tacoma; Washington; USA",,,,,,,,
-122.4111982,47.2382576975452,fuel,Shell,,2802,E Portland Avenue,98404-4923,Tacoma,+1-253-627-6448,,https://www.shell.us/,,,WA,,,,,yes,,,,,,,,,,,,,,,,
-122.4759749,48.7142927975452,fuel,Shell,,3124,Old Fairhaven Parkway,98225,Bellingham,,,,,,,,,,,,,,,,,,,,,,,,,,,
-122.7493052,48.9984848975452,fuel,Shell,,360,D Street,,Blaine,,,,,yes,,,,,,,,,,,,yes,,,,,,,,,,
-122.475183,48.7474330975452,fuel,Shell,,415,E Holly St,98225,Bellingham,+1-360-734-1922,,,,,,,,,,,,,,,,,,,,,,,,,,
-119.2786319,46.2855056975452,fuel,Shell,,515,Williams Boulevard,99354,Richland,,,,,,,,,,US,,,,,,,,,,,,,,,,,
-122.9055421,46.6067139975452,fuel,Shell,,,,98532,,,,,,,WA,,,,US,,,,,,,,,,,,,,,,,
-121.1844541,47.2470781975452,fuel,Shell,,,,,,,24/7,,,,,,,,,,,,,,,,,,,,,,,,,
-122.5813336,47.3044797975452,fuel,Shell,,,,,,,24/7,,,,,,,,,,,,,,,,,,,,,,,,,
-122.0361641,47.5299296975452,fuel,Shell,,,,,,,24/7,,,,,,,,,,,,,,,,,,,,,,,,,
-122.092659,47.7027737975452,fuel,Shell,,,,,,,24/7,,,,,,,,,,,,,,,,,,,,,,,,,
-122.0089862,48.0721579975452,fuel,Shell,,,,,,,"24/7 off ""Permanently Closed""",,,,,Shell,,,,,,,,,,,,,,,,,,,,
-124.1044627,46.8905586975452,fuel,Shell,,,,,,,,,Shell,,,,,,,,,,,,,,,,,,,,,,,
-124.3855995,47.9526682975452,fuel,Shell,,,,,,,,,Shell,,,,,,,,,,,,,,,,,,,,,,,
-118.9344268,46.1381587975452,fuel,Shell,,,,,,,,,,,,Shell,,,,,,,,,,,,,,,,,,,,
-119.7881048,46.2207842975452,fuel,Shell,,,,,,,,,,,,Shell,,,,,,,,,,,,,,,,,,,,
-119.7890029,46.2208648975452,fuel,Shell,,,,,,,,,,,,Shell,,,,,,,,,,,,,,,,,,,,
-119.979087,46.3093527975452,fuel,Shell,,,,,,,,,,,,Shell,,,,,,,,,,,,,,,,,,,,
-120.3966198,46.4750242975452,fuel,Shell,,,,,,,,,,,,Shell,,,,,,,,,,,,,,,,,,,,
-120.473035,46.5682957975452,fuel,Shell,,,,,,,,,,,,Shell,,,,,,,,,,,,,,,,,,,,
-122.9045741,46.9822957975452,fuel,Shell,,,,,,,,,,,,Shell,,,,,,,,,,,,,,,,,,,,
-122.1958314,47.6665396975452,fuel,Shell,,,,,,,,,,,,Shell,,,,,,,,,,,,,,,,,,,,
-122.1817114,48.0520799975452,fuel,Shell,,,,,,,,,,,,Shell,,,,,,,,,,,,,,,,,,,,
-122.6847293,48.4949786975452,fuel,Shell,,,,,,,,,,,,Shell,,,,,,,,,,,,,,,,,,,,
-122.2177024,47.7909548975452,fuel,Shell,,,,,,,,,,,,,,,,,,,no,,,,,,,,,,,,,
-122.5918691,45.6243627975452,fuel,Shell,,,,,,,,,,,,,,,,,,,,,,,,,,,,,,,,
-120.6062016,46.5934117975452,fuel,Shell,,,,,,,,,,,,,,,,,,,,,,,,,,,,,,,,
-122.4850245,46.5338534975452,fuel,Shell,,,,,,,,,,,,,,,,,,,,,,,,,,,,,,,,
-122.9742676,46.7107769975452,fuel,Shell,,,,,,,,,,,,,,,,,,,,,,,,,,,,,,,,
-123.0117874,46.8018867975452,fuel,Shell,,,,,,,,,,,,,,,,,,,,,,,,,,,,,,,,
-120.941584,47.1950400975452,fuel,Shell,,,,,,,,,,,,,,,,,,,,,,,,,,,,,,,,
-120.2880128,47.4063109975452,fuel,Shell,,,,,,,,,,,,,,,,,,,,,,,,,,,,,,,,
-120.2842096,47.5284129975452,fuel,Shell,,,,,,,,,,,,,,,,,,,,,,,,,,,,,,,,
-121.9151281,47.6470432975452,fuel,Shell,,,,,,,,,,,,,,,,,,,,,,,,,,,,,,,,
-122.0574093,47.1601873975452,fuel,Shell,,,,,,,,,,,,,,,,,,,,,,,,,,,,,,,,
-122.2076156,47.1974131975452,fuel,Shell,,,,,,,,,,,,,,,,,,,,,,,,,,,,,,,,
-122.3483514,47.2424328975452,fuel,Shell,,,,,,,,,,,,,,,,,,,,,,,,,,,,,,,,
-122.7639713,47.0572156975452,fuel,Shell,,,,,,,,,,,,,,,,,,,,,,,,,,,,,,,,
-122.8683395,47.0456812975452,fuel,Shell,,,,,,,,,,,,,,,,,,,,,,,,,,,,,,,,
-122.9261437,47.0298975975452,fuel,Shell,,,,,,,,,,,,,,,,,,,,,,,,,,,,,,,,
-122.8933879,47.0465358975452,fuel,Shell,,,,,,,,,,,,,,,,,,,,,,,,,,,,,,,,
-122.5481351,47.1799863975452,fuel,Shell,,,,,,,,,,,,,,,,,,,,,,,,,,,,,,,,
-122.4504711,47.2627511975452,fuel,Shell,,,,,,,,,,,,,,,,,,,,,,,,,,,,,,,,
-122.5259955,47.2501958975452,fuel,Shell,,,,,,,,,,,,,,,,,,,,,,,,,,,,,,,,
-122.5154918,47.2707723975452,fuel,Shell,,,,,,,,,,,,,,,,,,,,,,,,,,,,,,,,
-122.6372054,47.2580735975452,fuel,Shell,,,,,,,,,,,,,,,,,,,,,,,,,,,,,,,,
-122.8293157,47.3833250975452,fuel,Shell,,,,,,,,,,,,,,,,,,,,,,,,,,,,,,,,
-122.1232175,47.5007635975452,fuel,Shell,,,,,,,,,,,,,,,,,,,,,,,,,,,,,,,,
-122.3364092,47.5322035975452,fuel,Shell,,,,,,,,,,,,,,,,,,,,,,,,,,,,,,,,
-122.6561948,47.7435680975452,fuel,Shell,,,,,,,,,,,,,,,,,,,,,,,,,,,,,,,,
-122.1522537,47.7549456975452,fuel,Shell,,,,,,,,,,,,,,,,,,,,,,,,,,,,,,,,
-122.1646956,47.7548668975452,fuel,Shell,,,,,,,,,,,,,,,,,,,,,,,,,,,,,,,,
-122.3461021,47.7556809975452,fuel,Shell,,,,,,,,,,,,,,,,,,,,,,,,,,,,,,,,
-122.366215,47.7653138975452,fuel,Shell,,,,,,,,,,,,,,,,,,,,,,,,,,,,,,,,
-122.3130353,47.7772934975452,fuel,Shell,,,,,,,,,,,,,,,,,,,,,,,,,,,,,,,,
-122.2066974,47.9123787975452,fuel,Shell,,,,,,,,,,,,,,,,,,,,,,,,,,,,,,,,
-122.2279652,47.9216551975452,fuel,Shell,,,,,,,,,,,,,,,,,,,,,,,,,,,,,,,,
-122.1890993,47.9820463975452,fuel,Shell,,,,,,,,,,,,,,,,,,,,,,,,,,,,,,,,
-122.0957122,48.0179802975452,fuel,Shell,,,,,,,,,,,,,,,,,,,,,,,,,,,,,,,,
-122.1769194,48.0478479975452,fuel,Shell,,,,,,,,,,,,,,,,,,,,,,,,,,,,,,,,
-122.1829033,48.0751256975452,fuel,Shell,,,,,,,,,,,,,,,,,,,,,,,,,,,,,,,,
-122.1821415,48.0753693975452,fuel,Shell,,,,,,,,,,,,,,,,,,,,,,,,,,,,,,,,
-122.2533654,48.5030881975452,fuel,Shell,,,,,,,,,,,,,,,,,,,,,,,,,,,,,,,,
-122.612967,48.5112109975452,fuel,Shell,,,,,,,,,,,,,,,,,,,,,,,,,,,,,,,,
-123.0174055,48.5335933975452,fuel,Shell,,,,,,,,,,,,,,,,,,,,,,,,,,,,,,,,
-122.6650705,47.5702719975452,fuel,Shell Diesel Pumps,,,,,,,,,,,,,,,,,,,,,,,,,,,,,,,,
-122.4083462,47.6804502975452,fuel,Shilshole Fuel Dock,,7029,Seaview Avenue Northwest,98117,Seattle,(206) 783-7555,,,,,,,,,,,,,,,,,,,,,,,,,,
-122.3359529,48.4750248975452,fuel,Skagit Big Mini Mart,,,,,,,,,,,,,,,,,,,,,,,,,,,,,,,,
-121.3616417,47.7111072975452,fuel,Sky Gas,,,,,,,,,,,,,,,,,,,,,,,,,,,,,,,,
-122.0990065,47.9133075975452,fuel,Snohomish 76,76,202,Avenue D,,Snohomish,,,,,,,,,,,,,,,,,,,,,,,,,,,
-122.2932516,47.1488870975452,fuel,South Hill Fuels,,,,,,,,,,,,,,,,,,,,,,,,,,,,,,,,
-122.4672429,47.2502618975452,fuel,Spirit,,,,,,,,,,,,,,,,,,,,,,,,,,,,,,,,
-122.3880113,47.6689833975452,fuel,Spirit Gas Station,,,,,,,,,,,,,,,,,,,,,,,,,,,,,,,,
-117.6120251,47.6436598975452,fuel,Spoko Fuel,Texaco,,,,,,,,,,,,,,,,,,,,,,,,,,,,,,,
-122.3308338,48.2389125975452,fuel,Stanwood Valero,Valero,,,,,,,,,,,,,,,,,,,,,,,,,,,,,,,
-122.6615556,48.8198833975452,fuel,Starvin' Sam's 76,,3310,Slater Road,98248,,3603840454,,,,,,,,,,,,,,,,,,,,,,,,,,
-122.1862485,48.1114943975452,fuel,Suburban Propane,,,,,,,,,,,,,,,,,,,,,,,,,,,,,,,,
-119.0944915,46.2345899975452,fuel,Sunrise Super Gas,,,,,,,,,,,,,,,,,,,,,,,,,,,,,,,,
-119.2442268,47.1015071975452,fuel,Sunval,,,,,,,,,,,,,,,,,,,,,,,,,,,,,,,,
-119.310897,47.1044590975452,fuel,Sunval Express,,2777,West Broadway Avenue,98837,Moses Lake,,,,,,,,,,,,,,,,,,,,,,,,,,,
-122.486336,48.7936620975452,fuel,Super Gas,,4209,Meridian St,98226-5512,Bellingham,+1-360-752-1100,,,,,,,,,,,,,,,,,,,,,,,,,,
-117.3709031,47.6280536975452,fuel,Svoboda's Texaco,,2706,East 29th Avenue,99223,Spokane,,,,,yes,WA,,,,,,,yes,,,,,yes,,,,,,,yes,,
-119.1775682,46.1852618975452,fuel,Tesoro,,,,,,,,,,,,,,,,,,,,,,,,,,,,,,,,
-124.3850638,47.9524336975452,fuel,Tesoro,,,,,,,,,,,,,,,,,,,,,,,,,,,,,,,,
-122.6131086,48.5025290975452,fuel,Tesoro,,,,,,,,,,,,,,,,,,,,,,,,,,,,,,,,
-122.9789185,46.7276393975452,fuel,Texaco,Texaco,,,,,,,,Texaco,,,,Q775060,en:Texaco,,,,,,,,,,,,,,,,,,
-122.2350761,46.9850977975452,fuel,Texaco,Texaco,,,,,,,,,,,Texaco,,,,,,,,,,,,,,,,,,,,
-122.938675,47.0345585975452,fuel,Texaco,Texaco,,,,,,,,,,,,Q775060,en:Texaco,,,,,,,,,,,,,,,,,,
-120.5492075,46.9994359975452,fuel,Texaco,Texaco,,,,,,,,,,,,,,,,,,,,,,,,,,,,,,,
-121.8075793,47.8623805975452,fuel,Texaco,Texaco,,,,,,,,,,,,,,,,,,,,,,,,,,,,,,,
-122.2071409,47.0993035975452,fuel,Texaco,Texaco,,,,,,,,,,,,,,,,,,,,,,,,,,,,,,,
-122.9437845,47.0297256975452,fuel,Texaco,Texaco,,,,,,,,,,,,,,,,,,,,,,,,,,,,,,,
-122.2809144,47.4559565975452,fuel,Texaco,Texaco,,,,,,,,,,,,,,,,,,,,,,,,,,,,,,,
-122.694876,47.6502555975452,fuel,Texaco,Texaco,,,,,,,,,,,,,,,,,,,,,,,,,,,,,,,
-122.328728,47.8047856975452,fuel,Texaco,Texaco,,,,,,,,,,,,,,,,,,,,,,,,,,,,,,,
-122.362159,48.4275483975452,fuel,Texaco,Texaco,,,,,,,,,,,,,,,,,,,,,,,,,,,,,,,
-122.2284742,47.4299535975452,fuel,Texaco,,19243,84th Avenue South,98032,Kent,,,,,,,,,,,,,,,,,,,,,,,,,,,
-119.459882,48.9949460975452,fuel,Texaco,,33607,US-97,98844-9525,Oroville,+1-509-476-3686,,,,,,,,,,,,,,,,,,,,,,,,,,
-122.1363437,48.9174760975452,fuel,Texaco,,6476,Mount Baker Hwy,98244-8244,Kendall,+1-360-599-9108,,,,,,,,,,,,,,,,,,,,,,,,,,
-119.2480485,47.1019323975452,fuel,Texaco,,,,,,,,,,,,,,,,,,,,,,,,,,,,,,,,
-121.466049,45.7148195975452,fuel,Texaco,,,,,,,,,,,,,,,,,,,,,,,,,,,,,,,,
-122.9051419,46.3922737975452,fuel,Texaco,,,,,,,,,,,,,,,,,,,,,,,,,,,,,,,,
-122.9779355,46.6757135975452,fuel,Texaco,,,,,,,,,,,,,,,,,,,,,,,,,,,,,,,,
-122.8590672,46.8528246975452,fuel,Texaco,,,,,,,,,,,,,,,,,,,,,,,,,,,,,,,,
-122.7682682,46.9843293975452,fuel,Texaco,,,,,,,,,,,,,,,,,,,,,,,,,,,,,,,,
-122.3557028,47.0967760975452,fuel,Texaco,,,,,,,,,,,,,,,,,,,,,,,,,,,,,,,,
-122.0379906,47.2103627975452,fuel,Texaco,,,,,,,,,,,,,,,,,,,,,,,,,,,,,,,,
-122.9261907,47.0458411975452,fuel,Texaco,,,,,,,,,,,,,,,,,,,,,,,,,,,,,,,,
-123.0448502,47.2487756975452,fuel,Texaco,,,,,,,,,,,,,,,,,,,,,,,,,,,,,,,,
-122.5791589,47.7115027975452,fuel,Texaco,,,,,,,,,,,,,,,,,,,,,,,,,,,,,,,,
-122.1323705,47.7617506975452,fuel,Texaco,,,,,,,,,,,,,,,,,,,,,,,,,,,,,,,,
-122.3192066,48.4354444975452,fuel,Texaco,,,,,,,,,,,,,,,,,,,,,,,,,,,,,,,,
-122.5823056,48.4615810975452,fuel,Texaco,,,,,,,,,,,,,,,,,,,,,,,,,,,,,,,,
-120.4058555,48.5931731975452,fuel,The Mazama Store,,,,,,,,,,,,,,,,,,,,,,,,,,,,,,,,
-124.5344581,47.9130932975452,fuel,Three Rivers,Chevron,,,,,,,,,,,,,,,,,,,,,,,,,,,,,,,
-122.1924823,48.1000127975452,fuel,Tulalip Tribes Chevron,Chevron,2832,116th Street Northeast,,Tulalip,,,,,,,,,,,,,,,,,,,,,,,,,,,
-122.8546579,46.8564927975452,fuel,Union 76,,,,,,,,,,,,,,,,,,,,,,,,,,,,,,,,
-122.4344133,47.1801530975452,fuel,Union 76,,,,,,,,,,,,,,,,,,,,,,,,,,,,,,,,
-122.4626623,47.1813110975452,fuel,Union 76,,,,,,,,,,,,,,,,,,,,,,,,,,,,,,,,
-122.4152528,47.1915535975452,fuel,Union 76,,,,,,,,,,,,,,,,,,,,,,,,,,,,,,,,
-122.5375972,47.1782733975452,fuel,Union 76,,,,,,,,,,,,,,,,,,,,,,,,,,,,,,,,
-122.2011946,47.9764673975452,fuel,Unocal 76,,,,,,,,,,,,,,,,,,,,,,,,,,,,,,,,
-122.2117831,47.9762328975452,fuel,Unocal 76,,,,,,,,,,,,,,,,,,,,,,,,,,,,,,,,
-119.9878642,46.3159358975452,fuel,USA Gasoline,,,,,,,,,,,,USA Gasoline,,,,,,,,,,,,,,,,,,,,
-119.1932605,46.2129283975452,fuel,USA Gasoline,,,,,,,,,,,,,,,,,,,,,,,,,,,,,,,,
-122.346133,47.7562447975452,fuel,Valero,,,,,,,,,,,,,,,,,convenience,,,,,,,,,,,,,,,
-122.1084468,48.0016932975452,fuel,Valero,,,,,,,,,,,,,,,,,,,,,,,,,,,,,,,,
-123.0702945,48.9841899975452,fuel,Valero,,,,,,,,,,,,,,,,,,,,,,,,,,,,,,,,
-122.4193695,47.0725999975452,fuel,Walmart Gas,,,,,,,,,,,,,,,,,,,,,,,,,,,,,,,,
-120.9559942,47.1963121975452,fuel,Warrior's Quick Stop,,,,,,,,,,,,,,,,,,,,,,,,,,,,,,,,
-122.3215516,48.9203558975452,fuel,WFC Energy,,102,Nooksack Ave,98247,Nooksack,+1-(360) 966-4782,,,,,,,,,,,,,,,,,,,,,,,,,,
-122.4527623,48.9465489975452,fuel,WFC Energy,,,,,,,,,Whatcom Farmer's Co-op,,,,,,,,,,,,,,,,,,,,,,,
-120.0810756,47.6414190975452,fuel,Whitley Fuel,Shell,,,,,,,,,,,,,,,,,,,,,,,,,,,,,,,
-120.9207821,47.1929132975452,fuel,Willette's Shell,Shell,,,,,,,,,,,,,,,,,,,,,,,,,,,,,,,
-121.8210864,45.7410913975452,fuel,Wind River Market,Texaco,,,,,,,,,,,,,,,,,,,,,,,,,,,,,,,
-120.318289,47.4836969975452,fuel,WTS Truck Stop,,,,,,,,,,,,,,,,,,,,,,,,,,,,,,,,
-122.2980489,48.1556528975452,fuel,,76,,,,,,,,76,,,,,,,,,,,,,,,,,,,,,,,
-119.1166251,46.9698207975452,fuel,,76,,,,,,,,,,,,,,,,,,,,,,,,,,,,,,,
-117.3817409,47.6720603975452,fuel,,76,,,,,,,,,,,,,,,,,,,,,,,,,,,,,,,
-119.2452244,47.1019341975452,fuel,,76,,,,,,,,,,,,,,,,,,,,,,,,,,,,,,,
-121.1875074,45.6523656975452,fuel,,76,,,,,,,,,,,,,,,,,,,,,,,,,,,,,,,
-122.5580253,46.9346497975452,fuel,,76,,,,,,,,,,,,,,,,,,,,,,,,,,,,,,,
-123.7977421,46.6630837975452,fuel,,76,,,,,,,,,,,,,,,,,,,,,,,,,,,,,,,
-123.8027389,46.9672457975452,fuel,,76,,,,,,,,,,,,,,,,,,,,,,,,,,,,,,,
-120.3349984,47.4668753975452,fuel,,76,,,,,,,,,,,,,,,,,,,,,,,,,,,,,,,
-121.9730503,47.4199512975452,fuel,,76,,,,,,,,,,,,,,,,,,,,,,,,,,,,,,,
-122.5154949,47.2911081975452,fuel,,76,,,,,,,,,,,,,,,,,,,,,,,,,,,,,,,
-122.3144444,47.6629108975452,fuel,,76,,,,,,,,,,,,,,,,,,,,,,,,,,,,,,,
-123.4182356,48.1131392975452,fuel,,76,,,,,,,,,,,,,,,,,,,,,,,,,,,,,,,
-122.2227035,48.5102381975452,fuel,,76,,,,,,,,,,,,,,,,,,,,,,,,,,,,,,,
-122.8653161,47.0034252975452,fuel,,Arco,,,,,,,,,,,,,,,,,,,,,,,,,,,,,,,
-122.8237049,47.0357295975452,fuel,,Arco,,,,,,,,,,,,,,,,,,,,,,,,,,,,,,,
-122.2263442,48.5108069975452,fuel,,Arco,,,,,,,,,,,,,,,,,,,,,,,,,,,,,,,
-122.1440367,47.8044844975452,fuel,,ARCO,,,,,,24/7,,,,,,,,,,,,,,,,,,,,,,,,,
-117.3687686,47.6017440975452,fuel,,Cenex,,,,,,,,,yes,,,,,,,,yes,,,,,,,,,,,,,,
-117.0551206,46.4196307975452,fuel,,Cenex,,,,,,,,,,,,,,,,,,,,,,,,,,,,,,,
-118.1536189,46.2702514975452,fuel,,Cenex,,,,,,,,,,,,,,,,,,,,,,,,,,,,,,,
-117.2715412,47.8274237975452,fuel,,Cenex,,,,,,,,,,,,,,,,,,,,,,,,,,,,,,,
-117.1053282,47.6676120975452,fuel,,Chevron,1109,North Liberty Lake Road,99019,Liberty Lake,,,,,,Washington,,,,,,,,,,,,,,,,,,,,,
-122.8874537,48.6960297975452,fuel,,Chevron,757,Crescent Beach Dr,98245-9490,Eastsound,+1-360-376-4076,,,,,,,,,,,,,,,,,,,,,,,,,,
-122.0042059,47.5647917975452,fuel,,Chevron,,,,,,,,,yes,,,,,,,,,,,,,,,,,yes,,,,,
-117.8775691,47.6696394975452,fuel,,Chevron,,,,,,,,,,,,,,,,,,,,,,,,,,,,,,,
-121.6727151,46.6041396975452,fuel,,Chevron,,,,,,,,,,,,,,,,,,,,,,,,,,,,,,,
-122.9560933,46.7114906975452,fuel,,Chevron,,,,,,,,,,,,,,,,,,,,,,,,,,,,,,,
-122.9738649,46.7116267975452,fuel,,Chevron,,,,,,,,,,,,,,,,,,,,,,,,,,,,,,,
-122.9431862,46.9233833975452,fuel,,Chevron,,,,,,,,,,,,,,,,,,,,,,,,,,,,,,,
-123.0113235,46.6488042975452,fuel,,Chevron,,,,,,,,,,,,,,,,,,,,,,,,,,,,,,,
-123.0836422,46.8213431975452,fuel,,Chevron,,,,,,,,,,,,,,,,,,,,,,,,,,,,,,,
-123.7720311,46.9569377975452,fuel,,Chevron,,,,,,,,,,,,,,,,,,,,,,,,,,,,,,,
-122.7655122,47.0615310975452,fuel,,Chevron,,,,,,,,,,,,,,,,,,,,,,,,,,,,,,,
-122.9248111,47.0276200975452,fuel,,Chevron,,,,,,,,,,,,,,,,,,,,,,,,,,,,,,,
-123.0212736,47.0801901975452,fuel,,Chevron,,,,,,,,,,,,,,,,,,,,,,,,,,,,,,,
-123.390316,47.0068458975452,fuel,,Chevron,,,,,,,,,,,,,,,,,,,,,,,,,,,,,,,
-123.4032626,47.0022456975452,fuel,,Chevron,,,,,,,,,,,,,,,,,,,,,,,,,,,,,,,
-122.0351769,47.5822620975452,fuel,,Chevron,,,,,,,,,,,,,,,,,,,,,,,,,,,,,,,
-122.2078948,47.8221391975452,fuel,,Chevron,,,,,,,,,,,,,,,,,,,,,,,,,,,,,,,
-122.2521912,47.8499876975452,fuel,,Chevron,,,,,,,,,,,,,,,,,,,,,,,,,,,,,,,
-122.7017066,47.9203675975452,fuel,,Chevron,,,,,,,,,,,,,,,,,,,,,,,,,,,,,,,
-117.9095437,48.5488465975452,fuel,,Chevron,,,,,,,,,,,,,,,,,,,,,,,,,,,,,,,
-119.9021838,48.0517654975452,fuel,,Chevron,,,,,,,,,,,,,,,,,,,,,,,,,,,,,,,
-119.7862366,48.1014775975452,fuel,,Chevron,,,,,,,,,,,,,,,,,,,,,,,,,,,,,,,
-120.1756218,48.4672659975452,fuel,,Chevron,,,,,,,,,,,,,,,,,,,,,,,,,,,,,,,
-122.1281952,48.1811142975452,fuel,,Chevron,,,,,,,,,,,,,,,,,,,,,,,,,,,,,,,
-122.768142,48.0114324975452,fuel,,Chevron,,,,,,,,,,,,,,,,,,,,,,,,,,,,,,,
-123.4240371,48.1153332975452,fuel,,Chevron,,,,,,,,,,,,,,,,,,,,,,,,,,,,,,,
-122.4854676,48.8330292975452,fuel,,Chevron,,,,,,,,,,,,,,,,,,,,,,,,,,,,,,,
-117.9888351,46.3161348975452,fuel,,Conoco,,,,,,,,,yes,,,,,,,,,,,yes,,,,,,,,,,,
-117.3997436,47.6145046975452,fuel,,Conoco,,,,,,,,,,,,,,,,,yes,,,,,yes,,,,,,,yes,,
-118.1410607,46.2702849975452,fuel,,Conoco,,,,,,,,,,,,,,,,,,,,,,,,,,,,,,,
-119.7720958,46.2088911975452,fuel,,Conoco,,,,,,,,,,,,,,,,,,,,,,,,,,,,,,,
-117.3836417,47.4269995975452,fuel,,Conoco,,,,,,,,,,,,,,,,,,,,,,,,,,,,,,,
-117.9083367,48.5484079975452,fuel,,CONOCO,,,,,,,,,,,,,,,,,,,,,,,,,,,,,,,
-117.0634733,48.1751478975452,fuel,,Exxon,,,,,,,,,yes,,,,,,,,,,,,,,,,,,,,,,
-119.9016231,46.2559137975452,fuel,,Exxon,,,,,,,,,,,,,,,,,,,,,,,,,,,,,,,
-118.8610094,46.6545215975452,fuel,,Exxon,,,,,,,,,,,,,,,,,,,,,,,,,,,,,,,
-117.9052079,48.5364042975452,fuel,,Exxon,,,,,,,,,,,,,,,,,,,,,,,,,,,,,,,
-119.7812744,48.1036339975452,fuel,,Exxon,,,,,,,,,,,,,,,,,,,,,,,,,,,,,,,
-119.4417342,48.7027883975452,fuel,,Exxon,,,,,,,,,,,,,,,,,,,,,,,,,,,,,,,
-122.483555,46.5287344975452,fuel,,Flying K,,,,,,,,,,,,,,,,,,,,,,,,,,,,,,,
-117.3681611,47.6141050975452,fuel,,Maverik,,,,,,,,,yes,,,,,,,,yes,,,,,,,,,,,,,,
-119.4406479,48.7029653975452,fuel,,Mobil,509,South Whitcomb Avenue,,,,,,,,,,,,,,,,,,,,,,,,,,,,,
-118.6681095,46.0407103975452,fuel,,Pacific Pride,,,,,,,,,,,,,,,,,,,,,,,,,,,,,,,
-122.7706225,47.0679303975452,fuel,,Pacific Pride,,,,,,,,,,,,,,,,,,,,,,,,,,,,,,,
-121.963649,48.0836518975452,fuel,,Pacific PRIDE,,,,,,,,,,,,,,,,,,,,,,,,,,,,,,,
-120.7134108,47.8079018975452,fuel,,Parkside Grocery Gas,,,,,,,,,,,,,,,,,,,,,,,,,,,,,,,
-122.2877669,47.8932766975452,fuel,,QFC Gas (coming soon),,,,,,,,,,,,,,,,,,,,,,,,,,,,,,,
-124.1614484,47.0102752975452,fuel,,Reino,,,,,,,,,,,,,,,,,,,,,,,,,,,,,,,
-122.7673249,47.0565389975452,fuel,,Safeway,,,,,,,,,,,,,,,,,,,,,,,,,,,,,,,
-122.2108212,48.1522120975452,fuel,,Shell,,,,,,,,Shell,,,,,,,,,,,,,,,,,,,,,,,
-117.9876093,46.3163016975452,fuel,,Shell,,,,,,,,,no,,,,,,,,,,,yes,,,,,,,,,,,
-119.278581,47.6219044975452,fuel,,Shell,,,,,,,,,yes,,,,,,,,,,,,,,,,,,,,,,
-124.1609735,47.0076779975452,fuel,,Shell,,,,,,,,,,,,,,,,,,,,,,,,,,,,,,,limited
-119.8966046,46.7379967975452,fuel,,Shell,,,,,,,,,,,,,,,,,,,,,,,,,,,,,,,
-119.1743717,46.8126538975452,fuel,,Shell,,,,,,,,,,,,,,,,,,,,,,,,,,,,,,,
-119.5458226,47.3292212975452,fuel,,Shell,,,,,,,,,,,,,,,,,,,,,,,,,,,,,,,
-120.5933733,46.6395162975452,fuel,,Shell,,,,,,,,,,,,,,,,,,,,,,,,,,,,,,,
-122.6092406,46.3739343975452,fuel,,Shell,,,,,,,,,,,,,,,,,,,,,,,,,,,,,,,
-122.9262804,46.4901441975452,fuel,,Shell,,,,,,,,,,,,,,,,,,,,,,,,,,,,,,,
-122.7203252,46.5323716975452,fuel,,Shell,,,,,,,,,,,,,,,,,,,,,,,,,,,,,,,
-122.9569005,46.7109222975452,fuel,,Shell,,,,,,,,,,,,,,,,,,,,,,,,,,,,,,,
-122.9809835,46.7292004975452,fuel,,Shell,,,,,,,,,,,,,,,,,,,,,,,,,,,,,,,
-122.6904775,46.8876537975452,fuel,,Shell,,,,,,,,,,,,,,,,,,,,,,,,,,,,,,,
-122.5978848,46.9375796975452,fuel,,Shell,,,,,,,,,,,,,,,,,,,,,,,,,,,,,,,
-122.6139668,46.9462708975452,fuel,,Shell,,,,,,,,,,,,,,,,,,,,,,,,,,,,,,,
-122.9079799,46.9935835975452,fuel,,Shell,,,,,,,,,,,,,,,,,,,,,,,,,,,,,,,
-123.1611858,46.8266730975452,fuel,,Shell,,,,,,,,,,,,,,,,,,,,,,,,,,,,,,,
-123.6005539,46.9787706975452,fuel,,Shell,,,,,,,,,,,,,,,,,,,,,,,,,,,,,,,
-122.4629235,47.1795259975452,fuel,,Shell,,,,,,,,,,,,,,,,,,,,,,,,,,,,,,,
-122.4854247,47.1767875975452,fuel,,Shell,,,,,,,,,,,,,,,,,,,,,,,,,,,,,,,
-122.6713016,47.0016838975452,fuel,,Shell,,,,,,,,,,,,,,,,,,,,,,,,,,,,,,,
-122.7653078,47.0609683975452,fuel,,Shell,,,,,,,,,,,,,,,,,,,,,,,,,,,,,,,
-122.8237825,47.0489483975452,fuel,,Shell,,,,,,,,,,,,,,,,,,,,,,,,,,,,,,,
-122.9661026,47.0037403975452,fuel,,Shell,,,,,,,,,,,,,,,,,,,,,,,,,,,,,,,
-123.2648503,47.0545399975452,fuel,,Shell,,,,,,,,,,,,,,,,,,,,,,,,,,,,,,,
-123.4038634,47.0022218975452,fuel,,Shell,,,,,,,,,,,,,,,,,,,,,,,,,,,,,,,
-123.0912416,47.2016138975452,fuel,,Shell,,,,,,,,,,,,,,,,,,,,,,,,,,,,,,,
-123.1606142,47.3383671975452,fuel,,Shell,,,,,,,,,,,,,,,,,,,,,,,,,,,,,,,
-122.0961636,47.9127195975452,fuel,,Shell,,,,,,,,,,,,,,,,,,,,,,,,,,,,,,,
-119.5107797,48.4165487975452,fuel,,Shell,,,,,,,,,,,,,,,,,,,,,,,,,,,,,,,
-121.9702925,48.0834834975452,fuel,,Shell,,,,,,,,,,,,,,,,,,,,,,,,,,,,,,,
-121.6014569,48.2554467975452,fuel,,Shell,,,,,,,,,,,,,,,,,,,,,,,,,,,,,,,
-121.706149,48.2684191975452,fuel,,Shell,,,,,,,,,,,,,,,,,,,,,,,,,,,,,,,
-121.7598253,48.5358816975452,fuel,,Shell,,,,,,,,,,,,,,,,,,,,,,,,,,,,,,,
-123.0151384,48.5364765975452,fuel,,Shell,,,,,,,,,,,,,,,,,,,,,,,,,,,,,,,
-117.1750128,46.7362835975452,fuel,,Tesoro,,,,,,,,,,,,,,,,,,,,,,,,,,,,,,,
-117.9909594,46.3134819975452,fuel,,Texaco,,,,,,,,,yes,,,,,,,,,,,yes,,,,,,,,,,,
-117.1849236,46.7261390975452,fuel,,Texaco,,,,,,,,,,,,,,,,,,,,,,,,,,,,,,,
-119.9984855,46.2114263975452,fuel,,Texaco,,,,,,,,,,,,,,,,,,,,,,,,,,,,,,,
-119.1742805,46.8119047975452,fuel,,Texaco,,,,,,,,,,,,,,,,,,,,,,,,,,,,,,,
-118.3245936,47.9068565975452,fuel,,Texaco,,,,,,,,,,,,,,,,,,,,,,,,,,,,,,,
-120.0185777,46.3298724975452,fuel,,Texaco,,,,,,,,,,,,,,,,,,,,,,,,,,,,,,,
-122.6887377,46.8886793975452,fuel,,Texaco,,,,,,,,,,,,,,,,,,,,,,,,,,,,,,,
-122.9708372,46.9538158975452,fuel,,Texaco,,,,,,,,,,,,,,,,,,,,,,,,,,,,,,,
-123.2974999,46.5736865975452,fuel,,Texaco,,,,,,,,,,,,,,,,,,,,,,,,,,,,,,,
-122.8235545,47.0385626975452,fuel,,Texaco,,,,,,,,,,,,,,,,,,,,,,,,,,,,,,,
-122.8722631,47.0462110975452,fuel,,Texaco,,,,,,,,,,,,,,,,,,,,,,,,,,,,,,,
-122.9434627,47.0773208975452,fuel,,Texaco,,,,,,,,,,,,,,,,,,,,,,,,,,,,,,,
-117.7792528,48.9171586975452,fuel,,Texaco,,,,,,,,,,,,,,,,,,,,,,,,,,,,,,,
-119.5101092,48.4170007975452,fuel,,Texaco,,,,,,,,,,,,,,,,,,,,,,,,,,,,,,,
-122.2703084,47.8204400975452,fuel,,Union 76,19611,Alderwood Mall Parkway,,,,,,,,,,,,,,,,,,,,,,,,,,,,,
-119.9071834,46.7375226975452,fuel,,Union 76,,,,,,,,,,,,,,,,,,,,,,,,,,,,,,,
-119.9077037,46.7374085975452,fuel,,Union 76,,,,,,,,,,,,,,,,,,,,,,,,,,,,,,,
-117.4526747,47.9548947975452,fuel,,Union 76,,,,,,,,,,,,,,,,,,,,,,,,,,,,,,,
-117.4534525,47.9547402975452,fuel,,Union 76,,,,,,,,,,,,,,,,,,,,,,,,,,,,,,,
-120.008324,46.3162842975452,fuel,,Union 76,,,,,,,,,,,,,,,,,,,,,,,,,,,,,,,
-120.2586085,46.4009055975452,fuel,,Union 76,,,,,,,,,,,,,,,,,,,,,,,,,,,,,,,
-122.5678569,46.9200045975452,fuel,,Union 76,,,,,,,,,,,,,,,,,,,,,,,,,,,,,,,
-122.5538801,46.9376438975452,fuel,,Union 76,,,,,,,,,,,,,,,,,,,,,,,,,,,,,,,
-123.6011205,46.9782172975452,fuel,,Union 76,,,,,,,,,,,,,,,,,,,,,,,,,,,,,,,
-122.822874,47.0482400975452,fuel,,Union 76,,,,,,,,,,,,,,,,,,,,,,,,,,,,,,,
-123.3881328,47.0088798975452,fuel,,Union 76,,,,,,,,,,,,,,,,,,,,,,,,,,,,,,,
-123.091365,47.2011491975452,fuel,,Union 76,,,,,,,,,,,,,,,,,,,,,,,,,,,,,,,
-119.7874195,48.1014847975452,fuel,,Union 76,,,,,,,,,,,,,,,,,,,,,,,,,,,,,,,
-119.5416898,47.3027272975452,fuel,,USA Gasoline,,,,,,,,,,,,,,,,,,,,,,,,,,,,,,,
-122.7831121,47.0528016975452,fuel,,Valero,,,,,,,,,,,,,,,,,,,,,,,,,,,,,,,
-122.8229706,47.0356746975452,fuel,,Valero,,,,,,,,,,,,,,,,,,,,,,,,,,,,,,,
-122.8989945,47.0181110975452,fuel,,Valero,,,,,,,,,,,,,,,,,,,,,,,,,,,,,,,
-122.4883414,47.1591735975452,fuel,,,10814,Pacific Highway Southwest,98499,Lakewood,,,,,,WA,,,,,,,,,,,,,,,,,,,,,
-122.3543845,47.5172393975452,fuel,,,1505,Southwest Roxbury Street,,,,,,,,,,,,,,,,,,,,,,,,,,,,,
-122.2871684,48.8433354975452,fuel,,,3707,Mount Baker Hwy,98247,Deming,+1-360-592-0101,,,,,,,,,,,,,,,,,,,,,,,,,,
-119.0245874,48.5595303975452,fuel,,,,,,,,"Mo-Sa 08:00-17:00; Su 09:00-15:00",,,,,,,,,,,,,,,,,,,,,,,,,
-119.4877889,46.2621348975452,fuel,,,,,,,,,,Conoco,,,,,,,,,,,,,,,,,,,,,,,
-118.3898777,47.1164949975452,fuel,,,,,,,,,,Jake's Mini Mart,,,,,,,,,,,,,,,,,,,,,,,
-124.0986115,46.8591474975452,fuel,,,,,,,,,,Shell,,,,,,,,,,,,,,,,,,,,,,,
-117.5625043,47.8117148975452,fuel,,,,,,,,,,,yes,,,,,,,,,,,,,,,,,,,,,,
-122.4225145,45.5995259975452,fuel,,,,,,,,,,,,,,,,,yes,,,,,,,,,,,,,,,,
-123.1013666,47.1300857975452,fuel,,,,,,,,,,,,,,,,,,convenience,,,,,,,,,,,,,,,
-122.3918414,47.6278385975452,fuel,,,,,,,,,,,,,,,,,,,,,,,,,,,,,,,,,yes
-117.1076982,46.7455702975452,fuel,,,,,,,,,,,,,,,,,,,,,,,,,,,,,,,,,
-119.1204896,46.2417045975452,fuel,,,,,,,,,,,,,,,,,,,,,,,,,,,,,,,,,
-119.180577,46.1997358975452,fuel,,,,,,,,,,,,,,,,,,,,,,,,,,,,,,,,,
-119.9952295,46.3256792975452,fuel,,,,,,,,,,,,,,,,,,,,,,,,,,,,,,,,,
-118.1273516,46.5203369975452,fuel,,,,,,,,,,,,,,,,,,,,,,,,,,,,,,,,,
-119.1736312,46.8122242975452,fuel,,,,,,,,,,,,,,,,,,,,,,,,,,,,,,,,,
-117.2418278,47.1280826975452,fuel,,,,,,,,,,,,,,,,,,,,,,,,,,,,,,,,,
-117.1740793,47.3847780975452,fuel,,,,,,,,,,,,,,,,,,,,,,,,,,,,,,,,,
-117.1541367,47.6682913975452,fuel,,,,,,,,,,,,,,,,,,,,,,,,,,,,,,,,,
-117.2664883,47.6641881975452,fuel,,,,,,,,,,,,,,,,,,,,,,,,,,,,,,,,,
-117.3871333,47.7521560975452,fuel,,,,,,,,,,,,,,,,,,,,,,,,,,,,,,,,,
-119.3148145,47.1026017975452,fuel,,,,,,,,,,,,,,,,,,,,,,,,,,,,,,,,,
-119.2788166,47.1382274975452,fuel,,,,,,,,,,,,,,,,,,,,,,,,,,,,,,,,,
-119.123635,47.4215527975452,fuel,,,,,,,,,,,,,,,,,,,,,,,,,,,,,,,,,
-119.6319123,47.8098789975452,fuel,,,,,,,,,,,,,,,,,,,,,,,,,,,,,,,,,
-120.2156901,45.7441309975452,fuel,,,,,,,,,,,,,,,,,,,,,,,,,,,,,,,,,
-121.2840423,45.6934673975452,fuel,,,,,,,,,,,,,,,,,,,,,,,,,,,,,,,,,
-122.3372291,45.5788501975452,fuel,,,,,,,,,,,,,,,,,,,,,,,,,,,,,,,,,
-120.0125136,46.3296095975452,fuel,,,,,,,,,,,,,,,,,,,,,,,,,,,,,,,,,
-120.1949414,46.3421690975452,fuel,,,,,,,,,,,,,,,,,,,,,,,,,,,,,,,,,
-120.492165,46.5773684975452,fuel,,,,,,,,,,,,,,,,,,,,,,,,,,,,,,,,,
-120.494242,46.6047502975452,fuel,,,,,,,,,,,,,,,,,,,,,,,,,,,,,,,,,
-120.5202561,46.5854558975452,fuel,,,,,,,,,,,,,,,,,,,,,,,,,,,,,,,,,
-120.5587721,46.5856515975452,fuel,,,,,,,,,,,,,,,,,,,,,,,,,,,,,,,,,
-120.5718514,46.5922986975452,fuel,,,,,,,,,,,,,,,,,,,,,,,,,,,,,,,,,
-120.5993325,46.5927371975452,fuel,,,,,,,,,,,,,,,,,,,,,,,,,,,,,,,,,
-120.5308568,46.6087026975452,fuel,,,,,,,,,,,,,,,,,,,,,,,,,,,,,,,,,
-120.5183147,46.6095017975452,fuel,,,,,,,,,,,,,,,,,,,,,,,,,,,,,,,,,
-120.5308503,46.6128032975452,fuel,,,,,,,,,,,,,,,,,,,,,,,,,,,,,,,,,
-120.5302061,46.6145916975452,fuel,,,,,,,,,,,,,,,,,,,,,,,,,,,,,,,,,
-120.537171,46.6128191975452,fuel,,,,,,,,,,,,,,,,,,,,,,,,,,,,,,,,,
-120.5836388,46.5998346975452,fuel,,,,,,,,,,,,,,,,,,,,,,,,,,,,,,,,,
-120.4128974,46.9759500975452,fuel,,,,,,,,,,,,,,,,,,,,,,,,,,,,,,,,,
-121.0634316,46.9412567975452,fuel,,,,,,,,,,,,,,,,,,,,,,,,,,,,,,,,,
-122.8989767,46.1199232975452,fuel,,,,,,,,,,,,,,,,,,,,,,,,,,,,,,,,,
-122.9444443,46.1227454975452,fuel,,,,,,,,,,,,,,,,,,,,,,,,,,,,,,,,,
-122.9456727,46.1222694975452,fuel,,,,,,,,,,,,,,,,,,,,,,,,,,,,,,,,,
-122.9134192,46.1396698975452,fuel,,,,,,,,,,,,,,,,,,,,,,,,,,,,,,,,,
-122.964287,46.1474564975452,fuel,,,,,,,,,,,,,,,,,,,,,,,,,,,,,,,,,
-122.911614,46.1668122975452,fuel,,,,,,,,,,,,,,,,,,,,,,,,,,,,,,,,,
-122.9697889,46.4017291975452,fuel,,,,,,,,,,,,,,,,,,,,,,,,,,,,,,,,,
-122.9383422,46.4934808975452,fuel,,,,,,,,,,,,,,,,,,,,,,,,,,,,,,,,,
-122.7245953,46.5757788975452,fuel,,,,,,,,,,,,,,,,,,,,,,,,,,,,,,,,,
-122.9532255,46.7454557975452,fuel,,,,,,,,,,,,,,,,,,,,,,,,,,,,,,,,,
-122.7413846,46.9852773975452,fuel,,,,,,,,,,,,,,,,,,,,,,,,,,,,,,,,,
-123.0598637,46.6279855975452,fuel,,,,,,,,,,,,,,,,,,,,,,,,,,,,,,,,,
-123.7280187,46.6886229975452,fuel,,,,,,,,,,,,,,,,,,,,,,,,,,,,,,,,,
-123.7931076,46.9708441975452,fuel,,,,,,,,,,,,,,,,,,,,,,,,,,,,,,,,,
-120.3030964,47.4105212975452,fuel,,,,,,,,,,,,,,,,,,,,,,,,,,,,,,,,,
-120.3243563,47.4154366975452,fuel,,,,,,,,,,,,,,,,,,,,,,,,,,,,,,,,,
-120.3459815,47.4299710975452,fuel,,,,,,,,,,,,,,,,,,,,,,,,,,,,,,,,,
-120.2976909,47.4619988975452,fuel,,,,,,,,,,,,,,,,,,,,,,,,,,,,,,,,,
-120.0912501,47.8401016975452,fuel,,,,,,,,,,,,,,,,,,,,,,,,,,,,,,,,,
-120.7087605,47.8187570975452,fuel,,,,,,,,,,,,,,,,,,,,,,,,,,,,,,,,,
-121.7024213,47.8576828975452,fuel,,,,,,,,,,,,,,,,,,,,,,,,,,,,,,,,,
-121.9045219,47.9895858975452,fuel,,,,,,,,,,,,,,,,,,,,,,,,,,,,,,,,,
-122.3381425,47.0428101975452,fuel,,,,,,,,,,,,,,,,,,,,,,,,,,,,,,,,,
-122.3994917,47.0966266975452,fuel,,,,,,,,,,,,,,,,,,,,,,,,,,,,,,,,,
-122.4354735,47.0989583975452,fuel,,,,,,,,,,,,,,,,,,,,,,,,,,,,,,,,,
-122.4351387,47.1059307975452,fuel,,,,,,,,,,,,,,,,,,,,,,,,,,,,,,,,,
-122.4344382,47.1198823975452,fuel,,,,,,,,,,,,,,,,,,,,,,,,,,,,,,,,,
-122.1434762,47.1646373975452,fuel,,,,,,,,,,,,,,,,,,,,,,,,,,,,,,,,,
-122.2296169,47.1705156975452,fuel,,,,,,,,,,,,,,,,,,,,,,,,,,,,,,,,,
-122.2019269,47.2284984975452,fuel,,,,,,,,,,,,,,,,,,,,,,,,,,,,,,,,,
-122.3033814,47.1610519975452,fuel,,,,,,,,,,,,,,,,,,,,,,,,,,,,,,,,,
-122.3569173,47.1806959975452,fuel,,,,,,,,,,,,,,,,,,,,,,,,,,,,,,,,,
-122.4057251,47.1619100975452,fuel,,,,,,,,,,,,,,,,,,,,,,,,,,,,,,,,,
-122.4152228,47.1674720975452,fuel,,,,,,,,,,,,,,,,,,,,,,,,,,,,,,,,,
-122.4668741,47.1615671975452,fuel,,,,,,,,,,,,,,,,,,,,,,,,,,,,,,,,,
-122.4838952,47.1614527975452,fuel,,,,,,,,,,,,,,,,,,,,,,,,,,,,,,,,,
-122.4835025,47.1796727975452,fuel,,,,,,,,,,,,,,,,,,,,,,,,,,,,,,,,,
-122.3186579,47.2056701975452,fuel,,,,,,,,,,,,,,,,,,,,,,,,,,,,,,,,,
-122.29356,47.2357761975452,fuel,,,,,,,,,,,,,,,,,,,,,,,,,,,,,,,,,
-122.3714251,47.2428675975452,fuel,,,,,,,,,,,,,,,,,,,,,,,,,,,,,,,,,
-122.4840885,47.1899312975452,fuel,,,,,,,,,,,,,,,,,,,,,,,,,,,,,,,,,
-122.4079782,47.2291386975452,fuel,,,,,,,,,,,,,,,,,,,,,,,,,,,,,,,,,
-122.449429,47.2435330975452,fuel,,,,,,,,,,,,,,,,,,,,,,,,,,,,,,,,,
-122.4501908,47.2439446975452,fuel,,,,,,,,,,,,,,,,,,,,,,,,,,,,,,,,,
-122.4951419,47.2430814975452,fuel,,,,,,,,,,,,,,,,,,,,,,,,,,,,,,,,,
-122.706299,47.0538894975452,fuel,,,,,,,,,,,,,,,,,,,,,,,,,,,,,,,,,
-122.7776185,47.0538279975452,fuel,,,,,,,,,,,,,,,,,,,,,,,,,,,,,,,,,
-122.8184193,47.0346148975452,fuel,,,,,,,,,,,,,,,,,,,,,,,,,,,,,,,,,
-122.8341293,47.0436271975452,fuel,,,,,,,,,,,,,,,,,,,,,,,,,,,,,,,,,
-122.8466109,47.0374552975452,fuel,,,,,,,,,,,,,,,,,,,,,,,,,,,,,,,,,
-122.8450987,47.0445272975452,fuel,,,,,,,,,,,,,,,,,,,,,,,,,,,,,,,,,
-122.8331307,47.0477588975452,fuel,,,,,,,,,,,,,,,,,,,,,,,,,,,,,,,,,
-122.8339994,47.0476335975452,fuel,,,,,,,,,,,,,,,,,,,,,,,,,,,,,,,,,
-122.8447731,47.0470090975452,fuel,,,,,,,,,,,,,,,,,,,,,,,,,,,,,,,,,
-122.9224283,47.0240616975452,fuel,,,,,,,,,,,,,,,,,,,,,,,,,,,,,,,,,
-122.7816211,47.0826840975452,fuel,,,,,,,,,,,,,,,,,,,,,,,,,,,,,,,,,
-122.8449112,47.0808394975452,fuel,,,,,,,,,,,,,,,,,,,,,,,,,,,,,,,,,
-122.9281982,47.0632102975452,fuel,,,,,,,,,,,,,,,,,,,,,,,,,,,,,,,,,
-122.5806106,47.1604462975452,fuel,,,,,,,,,,,,,,,,,,,,,,,,,,,,,,,,,
-122.5747624,47.1765807975452,fuel,,,,,,,,,,,,,,,,,,,,,,,,,,,,,,,,,
-122.5753329,47.1770869975452,fuel,,,,,,,,,,,,,,,,,,,,,,,,,,,,,,,,,
-122.5081905,47.1972867975452,fuel,,,,,,,,,,,,,,,,,,,,,,,,,,,,,,,,,
-122.2219866,47.3074072975452,fuel,,,,,,,,,,,,,,,,,,,,,,,,,,,,,,,,,
-122.3224345,47.2830866975452,fuel,,,,,,,,,,,,,,,,,,,,,,,,,,,,,,,,,
-122.4892679,47.2502536975452,fuel,,,,,,,,,,,,,,,,,,,,,,,,,,,,,,,,,
-122.248629,47.4974894975452,fuel,,,,,,,,,,,,,,,,,,,,,,,,,,,,,,,,,
-122.3335219,47.4887346975452,fuel,,,,,,,,,,,,,,,,,,,,,,,,,,,,,,,,,
-123.0667687,47.0413192975452,fuel,,,,,,,,,,,,,,,,,,,,,,,,,,,,,,,,,
-123.2669075,47.0554792975452,fuel,,,,,,,,,,,,,,,,,,,,,,,,,,,,,,,,,
-123.4196642,47.0032573975452,fuel,,,,,,,,,,,,,,,,,,,,,,,,,,,,,,,,,
-123.4440031,47.0004566975452,fuel,,,,,,,,,,,,,,,,,,,,,,,,,,,,,,,,,
-123.9591077,47.2324480975452,fuel,,,,,,,,,,,,,,,,,,,,,,,,,,,,,,,,,
-123.8924235,47.4588520975452,fuel,,,,,,,,,,,,,,,,,,,,,,,,,,,,,,,,,
-122.3552534,47.7320515975452,fuel,,,,,,,,,,,,,,,,,,,,,,,,,,,,,,,,,
-122.2722952,47.8749725975452,fuel,,,,,,,,,,,,,,,,,,,,,,,,,,,,,,,,,
-122.2076098,47.9220900975452,fuel,,,,,,,,,,,,,,,,,,,,,,,,,,,,,,,,,
-122.1965963,47.9677293975452,fuel,,,,,,,,,,,,,,,,,,,,,,,,,,,,,,,,,
-124.0208466,46.7242524975452,fuel,,,,,,,,,,,,,,,,,,,,,,,,,,,,,,,,,
-124.2024862,47.2087023975452,fuel,,,,,,,,,,,,,,,,,,,,,,,,,,,,,,,,,
-124.3325352,47.5351927975452,fuel,,,,,,,,,,,,,,,,,,,,,,,,,,,,,,,,,
-124.3711642,47.6053903975452,fuel,,,,,,,,,,,,,,,,,,,,,,,,,,,,,,,,,
-117.7152893,48.2724797975452,fuel,,,,,,,,,,,,,,,,,,,,,,,,,,,,,,,,,
-117.4180469,48.7415525975452,fuel,,,,,,,,,,,,,,,,,,,,,,,,,,,,,,,,,
-117.3904976,48.8513497975452,fuel,,,,,,,,,,,,,,,,,,,,,,,,,,,,,,,,,
-118.1985701,48.0711826975452,fuel,,,,,,,,,,,,,,,,,,,,,,,,,,,,,,,,,
-118.6833691,48.0775665975452,fuel,,,,,,,,,,,,,,,,,,,,,,,,,,,,,,,,,
-118.2043341,48.2959390975452,fuel,,,,,,,,,,,,,,,,,,,,,,,,,,,,,,,,,
-119.5258214,48.4153236975452,fuel,,,,,,,,,,,,,,,,,,,,,,,,,,,,,,,,,
-118.0562124,48.6110225975452,fuel,,,,,,,,,,,,,,,,,,,,,,,,,,,,,,,,,
-119.7504829,48.5585668975452,fuel,,,,,,,,,,,,,,,,,,,,,,,,,,,,,,,,,
-119.6342922,48.8218269975452,fuel,,,,,,,,,,,,,,,,,,,,,,,,,,,,,,,,,
-120.1162451,48.2483710975452,fuel,,,,,,,,,,,,,,,,,,,,,,,,,,,,,,,,,
-120.1192656,48.3601149975452,fuel,,,,,,,,,,,,,,,,,,,,,,,,,,,,,,,,,
-121.8991837,48.5299971975452,fuel,,,,,,,,,,,,,,,,,,,,,,,,,,,,,,,,,
-122.7587928,48.0317006975452,fuel,,,,,,,,,,,,,,,,,,,,,,,,,,,,,,,,,
-122.7585991,48.0325778975452,fuel,,,,,,,,,,,,,,,,,,,,,,,,,,,,,,,,,
-122.3658507,48.4300673975452,fuel,,,,,,,,,,,,,,,,,,,,,,,,,,,,,,,,,
-123.438789,48.1214344975452,fuel,,,,,,,,,,,,,,,,,,,,,,,,,,,,,,,,,
-122.3372571,48.5070321975452,fuel,,,,,,,,,,,,,,,,,,,,,,,,,,,,,,,,,
-122.6243449,48.5294126975452,fuel,,,,,,,,,,,,,,,,,,,,,,,,,,,,,,,,,
-122.9129339,48.5260579975452,fuel,,,,,,,,,,,,,,,,,,,,,,,,,,,,,,,,,
-122.4864064,48.8556446975452,fuel,,,,,,,,,,,,,,,,,,,,,,,,,,,,,,,,,
-122.4867872,48.8560223975452,fuel,,,,,,,,,,,,,,,,,,,,,,,,,,,,,,,,,
-122.2653432,48.9940255975452,fuel,,,,,,,,,,,,,,,,,,,,,,,,,,,,,,,,,
-123.0669538,48.9848135975452,fuel,,,,,,,,,,,,,,,,,,,,,,,,,,,,,,,,,
-123.0673588,48.9851233975452,fuel,,,,,,,,,,,,,,,,,,,,,,,,,,,,,,,,,
